nombre,edad,calle,ciudad,provincia,cp,longitud,latitud
Teófila Pizarro Roldan,31,Vial Alonso Leal 8,Cáceres,Córdoba,42669,119.542865,45.0257285
Emigdio Soto Cid,70,Ronda Catalina Redondo 71 Puerta 2 ,Badajoz,Navarra,37030,-120.165518,21.080828
Valeria de Mercader,41,Via Lorenzo Peñalver 10 Apt. 34 ,Tarragona,Las Palmas,02601,-154.625304,48.4535585
Imelda de Enríquez,74,Camino de Roldán Barba 988 Apt. 33 ,Alicante,Burgos,42852,-97.470502,36.6195155
Ale Baeza Bravo,64,Pasaje de Macario Lerma 8,Guadalajara,Vizcaya,27211,-31.240426,39.581396
Ángeles Redondo-Cortes,39,Urbanización de Aurelio Ríos 7 Puerta 0 ,León,Zamora,06071,-70.620032,62.488986
Juana Pascual Reig,30,Pasadizo Pancho Lluch 78 Puerta 5 ,Salamanca,León,27343,-69.280486,-40.4250725
Aitana Vera Chaparro Raya,19,Pasadizo Amaya Sobrino 6,Pontevedra,Huesca,35524,39.227996,60.001118
Horacio Palomino Roldán,43,Plaza de Armando Zabaleta 69,Murcia,Girona,11804,125.535649,-59.345183
José María Zamora,76,Acceso Adora Casado 54,Teruel,Salamanca,45074,172.423033,67.972758
Inés Jáuregui Galindo,43,Acceso de Ema Barranco 9,La Rioja,Toledo,02349,9.383584,-64.694292
Jose Carlos Alsina Canet,28,Pasadizo de Morena Saez 66 Piso 2 ,Las Palmas,Málaga,43020,138.046710,-71.619390
Carina del Pozuelo,19,Alameda de Macario Pedrero 16,Cáceres,Badajoz,32508,114.832522,-19.5509435
Ruperta Chaparro Tomás,54,Vial Lucía Monreal 90 Puerta 7 ,Cádiz,Burgos,11127,-85.605766,-85.284019
Máximo Edgardo Ballester Morales,62,Acceso de Ricarda Viñas 36 Piso 3 ,La Coruña,Asturias,29096,-9.322268,15.7473585
Galo del Montenegro,56,Camino de Telmo Valderrama 56,Álava,Soria,41512,20.139492,82.147786
Petrona Abad Uriarte,26,C. Silvestre Talavera 20,Segovia,Salamanca,36457,63.139294,-54.015887
Josep Rodolfo Pellicer Parejo,50,Rambla Iris Porras 59,Albacete,Ceuta,07336,-57.741095,-6.1179185
Mercedes Ribes Fuster,20,Callejón Valeria Valentín 91,Ceuta,Segovia,49631,-153.322966,73.6117915
Angélica Abellán Prat,36,Pasaje de Otilia Ayllón 938,Valladolid,Teruel,42026,62.720054,86.444023
Adriana Dominguez,51,Via Régulo Flores 43 Puerta 9 ,Guadalajara,Asturias,52098,-62.002400,-66.0963695
Hermenegildo de Jaén,69,Calle de Leticia Jaume 7 Puerta 1 ,Lugo,La Rioja,42364,-140.300453,51.060893
Elisabet Patiño Español,44,Cuesta Clara Lasa 14 Apt. 63 ,Albacete,Madrid,22282,83.821287,-58.9366855
Leandra Palomar Iriarte,23,Ronda de Josep Espada 96,Barcelona,Madrid,16257,-117.690171,-68.2327015
Lucho Prada Sebastián,72,Vial Caridad Carrión 35,Lugo,Cádiz,40770,7.809149,62.9749705
Asunción Tovar,20,Cuesta de Pía Sastre 71,La Coruña,Huelva,08313,62.431044,-84.311883
Ramona Miralles Corominas,54,Ronda Damián Lerma 95,Ceuta,Ávila,12010,-111.747555,-74.670186
Manuel Amaya-Vélez,23,Pasadizo Isidora Rodríguez 1 Puerta 2 ,Segovia,Palencia,41224,-3.089344,-0.4719815
Florencia Baños-Arteaga,43,Avenida de Esther Galán 436,Barcelona,Navarra,29220,-163.891850,-3.0621705
Carmelita Díaz Quintana,26,Callejón Fortunata Córdoba 156 Apt. 67 ,Lugo,Granada,09089,97.018257,-89.9204765
Osvaldo Quiroga Meléndez,47,Via Mayte Perera 77,Huesca,Navarra,25265,42.911023,63.7455515
Paula Blanch Cañas,64,Rambla Felicidad Giménez 79 Apt. 89 ,La Coruña,Navarra,33194,-59.170374,78.2088325
Ariel Anastasio Alfaro Galvez,44,Rambla de Domingo Gómez 7,Cuenca,Ávila,51598,49.618658,-17.968235
Alejo Edelmiro Gracia Lledó,42,Paseo Ana Sofía Agullo 43,Almería,Segovia,07707,-92.565337,76.074371
Manuela Torrent Bernad,30,Pasadizo de Angelina Mena 3,Huesca,Lugo,49183,-56.966558,29.9382165
Carmela Higueras,51,Acceso Ainara Cabrera 449,Ourense,Cáceres,50791,-144.731792,76.1302435
Cayetano Cristóbal Pina Cadenas,78,Plaza de Leopoldo Gargallo 59,Zamora,Sevilla,17035,-83.051860,-11.1193775
Aurelio del Lopez,53,Rambla de Abril Rios 48 Piso 7 ,Vizcaya,Cuenca,42627,-151.297512,70.511672
Dalila Durán Navas,68,Pasaje Ibán Espada 8 Puerta 8 ,Santa Cruz de Tenerife,Castellón,01643,-43.161591,38.862233
Sandalio Rosell Araujo,22,Glorieta de Calixta Botella 11 Apt. 16 ,Tarragona,Zaragoza,44313,-166.543168,64.696046
Zaira Osorio Montserrat,78,Ronda Américo Campillo 98,Pontevedra,Palencia,08228,68.887374,-88.1114165
Maristela Villaverde Barón,79,Paseo Celia Amat 11,Baleares,La Coruña,11150,13.971750,-71.1949465
Dan Borrás,68,Rambla Pelayo Planas 92,Jaén,Lugo,37139,-51.017540,-3.7830315
Maximino Amílcar Cuervo Fábregas,45,Glorieta Roldán Cid 85 Puerta 3 ,Zaragoza,Zamora,29867,168.023731,-71.761019
Zoraida Perea Muro,39,Urbanización de Adán Rodríguez 896 Puerta 5 ,Álava,Barcelona,49227,117.845912,-37.0423345
Sosimo de Ródenas,56,Pasadizo de Yago Llano 57 Apt. 34 ,Alicante,Burgos,12338,141.571220,49.2398385
Amarilis Gilabert Gámez,73,Glorieta Antonia Fabra 84,Huelva,Vizcaya,07559,-53.958552,-4.4644345
Carlota Andres-Manrique,46,Ronda de Gerónimo Montero 724 Apt. 80 ,Girona,La Rioja,47171,51.772985,-57.2609455
Evita Eusebia Espada Ripoll,77,Ronda de Manuel Campos 867,Soria,Baleares,26203,-111.245475,-20.729781
Graciano Bárcena Torrecilla,41,C. Josué Viña 121,Granada,Sevilla,18702,156.293118,-33.9096175
Luis Miguel Pinto Sastre,23,Via de Vinicio Campillo 82 Puerta 0 ,Valencia,Vizcaya,47347,-87.039249,54.9036885
Trinidad Gallardo-Galán,19,Camino Paca Avilés 756 Puerta 1 ,Cantabria,Madrid,05233,111.348182,-67.9775615
Iván Ródenas Tejera,61,Avenida de Pío Ródenas 8 Puerta 4 ,Guadalajara,Toledo,24051,-44.460159,89.076959
Graciela Miguel,39,C. Trinidad Abella 39,Vizcaya,Vizcaya,26633,101.572993,24.8935445
Xiomara Rita Rios Tur,64,Via Calixta Maldonado 22 Apt. 86 ,Huesca,Navarra,29194,13.234556,-29.195412
Eloy Acuña Valls,24,Alameda Piedad Alba 32 Piso 8 ,Almería,Castellón,41117,21.176584,-48.436031
Victor Sarabia Páez,29,Camino Fulgencio Álvaro 9 Apt. 05 ,Castellón,Burgos,26963,111.503007,62.528294
Hilda Simó Checa,54,Alameda de Juan Francisco Giner 940 Piso 8 ,La Coruña,Ceuta,13528,-115.062227,-85.810230
Marcia Apolonia Barrios Acevedo,63,Plaza Anastasia Jara 18 Piso 2 ,Soria,Burgos,02780,80.149148,-47.225008
Clímaco del Iriarte,67,Avenida de Nieves Sanmartín 37,Vizcaya,Asturias,39241,108.659897,2.8539385
Elpidio Artigas,65,Vial de Loreto Ortiz 67 Apt. 54 ,Toledo,Santa Cruz de Tenerife,21742,87.864878,31.954166
Belén Jaume Carvajal,33,Glorieta de Adalberto Piña 95,Córdoba,Huesca,40127,160.624856,25.1144645
Fernanda de Valle,79,Urbanización Yésica Montalbán 49 Piso 6 ,Alicante,Málaga,44001,-130.070016,-65.3753765
Belen Iborra Vives,20,Cuesta Luís Cueto 37,Ourense,Girona,28441,-70.525781,-87.822167
Hector Bonet Hernández,57,Urbanización de Cipriano Guardia 42,Madrid,Pontevedra,02898,26.615720,-73.6424765
Ulises Salmerón Fábregas,76,Avenida Daniel Cal 85 Piso 6 ,León,Córdoba,45875,-14.326412,45.072546
Celia Palacio Pont,73,Pasadizo de María Chaparro 66,Madrid,La Coruña,36718,-157.974234,-64.397398
Berto Herrera Corominas,74,Calle Dafne Cañete 81,Huesca,Albacete,39539,156.574801,-31.9546515
Áurea Bas Maestre,72,Via Andrea Torrents 21 Apt. 84 ,Burgos,Ciudad,24292,-173.998551,-15.411550
Xavier Eustaquio Olivares Llano,66,Calle de Renata Cortes 926,Granada,Lugo,39675,80.170733,-84.2562335
Manu Naranjo Olmo,71,Acceso de Dionisia Pons 13,Palencia,Badajoz,21018,-56.256590,-6.2769175
Omar Diego,51,Pasaje Rolando Rivero 80 Apt. 79 ,Madrid,Barcelona,06493,-79.453736,23.549955
Aureliano Peiró Ferrera,76,Pasaje Malena Zorrilla 72,Valladolid,Huelva,13577,126.219410,16.571949
Paulino Gallo Quevedo,72,Pasadizo de Febe Iriarte 74,Granada,Las Palmas,29429,-99.424051,-48.493268
Leonor de Carretero,58,Ronda Angelina Castilla 91,Toledo,Girona,38176,130.580131,-18.675615
Jaime Molina-Ferrera,33,Callejón Emma Páez 83 Piso 7 ,Salamanca,Valencia,32323,-63.481384,-3.747827
Bernardita Yáñez Bonilla,71,Rambla Eulalia Peñas 959 Puerta 4 ,Burgos,Pontevedra,42326,-42.972375,69.9910815
Gerardo Matías Atienza Zabaleta,57,Urbanización Timoteo Gabaldón 22,León,Murcia,31017,168.535393,-80.559057
Roberto Prado Lasa,19,Paseo de Ariel Bosch 12 Apt. 60 ,Las Palmas,Toledo,34103,68.758736,58.526981
Luciano Azcona Alcalde,19,Cuesta de Octavia Escolano 82,Ceuta,Valencia,21117,-130.344724,-80.805423
Gonzalo Serrano Romeu,39,Via Felix Vila 410 Apt. 28 ,Málaga,Baleares,37140,70.924223,-11.359090
Brígida Domitila Pina Leal,54,Via de Bonifacio Sureda 4 Apt. 65 ,Cuenca,Asturias,39066,-56.366323,50.5766745
Silvestre Juan Francisco Echevarría Rojas,19,Calle Tecla Bolaños 27,Valencia,Madrid,51075,-177.408191,-30.4059245
Elodia Gil Quero,56,Avenida de Gabriela Ríos 59,Sevilla,Madrid,34086,88.809810,-85.1323655
Beatriz Arjona Calderon,30,C. Adrián Cantero 59,Madrid,Granada,17848,106.500480,84.0680315
Elba Mas,26,Camino de Anastasio Villa 25 Piso 7 ,Alicante,Teruel,21672,-107.021690,45.3706015
Gabino Segovia Valero,67,Urbanización de Malena Clavero 43,Ourense,Córdoba,24525,126.024501,-71.183592
Vanesa Nuñez Cuevas,53,Ronda de Leonel Saez 14 Piso 1 ,Baleares,Girona,10627,60.492596,21.681530
Ernesto Gargallo Cabrera,33,Via Viviana Larrañaga 18,Madrid,Navarra,43065,116.728409,-34.109543
Juan Bautista Rivas Ferrera,37,Pasadizo Juan Pablo Andreu 520 Puerta 4 ,Las Palmas,Alicante,46240,8.566221,-26.9070545
Carla Reina Conde,23,Callejón Octavio Armengol 70 Piso 2 ,Las Palmas,Segovia,46068,63.920232,27.977125
Mónica Viviana Sánchez Tejada,23,C. Edmundo Noriega 40 Apt. 09 ,Toledo,Palencia,49931,30.516634,-79.2386935
Isidro Pol-Valencia,30,Avenida Luís Enríquez 29,Ávila,Tarragona,32284,-161.488591,-19.930125
Régulo Bello Rosselló,75,Acceso Herberto Bolaños 964 Puerta 8 ,Ourense,Baleares,19397,-135.901942,59.6725665
Luis Ángel Calzada Cazorla,77,C. de Mauricio Lerma 6 Puerta 7 ,Zamora,Asturias,30803,-151.927645,82.257428
Heliodoro Serna Rosselló,74,Glorieta de Toni Pereira 1 Apt. 42 ,Zamora,Guadalajara,25252,2.019202,17.7173055
Jacobo Andrés Perales Pagès,29,Ronda de Poncio Gaya 744 Apt. 54 ,Baleares,Madrid,43270,165.219971,4.1126045
Rodrigo Gomis Escrivá,21,Alameda de Olalla Pardo 3 Piso 4 ,Baleares,La Rioja,18366,60.933280,47.058255
Eduardo Tejera Monreal,76,Alameda de Cintia Colom 77,Cáceres,Pontevedra,31579,-106.914917,-44.6655315
Lara Emperatriz Cañellas Zamorano,50,Paseo de Gema Diego 78,Palencia,Huesca,48899,39.996390,-54.7801985
Paula Roselló Amador,41,Plaza Calixta Gárate 51 Piso 2 ,Zamora,Burgos,51655,-106.401278,-52.2921585
Vinicio Rosselló Sacristán,69,Ronda Nuria Cases 3 Piso 0 ,Baleares,Lleida,46919,-54.500963,32.0636795
Marisela Beltran Bou,77,Glorieta Nicodemo Espejo 66,Melilla,Soria,42100,-81.013526,-44.241990
Américo Bartolomé Llobet,57,C. de Santiago Tolosa 56,Las Palmas,Palencia,16580,65.990783,-34.264938
Luís Juárez Méndez,72,Rambla Jenny Gallo 77,Palencia,Albacete,45842,110.724115,57.127364
Verónica Gomis Arteaga,43,Avenida Wilfredo Amorós 611,Córdoba,Lleida,12535,-77.891193,27.4235115
Pastor Ramirez,34,Pasaje de Raquel Fiol 87 Apt. 21 ,Santa Cruz de Tenerife,Cantabria,23978,154.390597,7.1044155
Berta Juliá Conde,19,Pasadizo de Obdulia Nadal 2 Puerta 1 ,Cuenca,Alicante,04563,156.168316,-48.0576155
Quique de Carbajo,19,Avenida de Iker Leiva 93 Puerta 9 ,Ceuta,Asturias,03084,12.220350,-32.729137
Marisa Ariza Olivé,19,Plaza Gema Cerro 1,Guadalajara,La Rioja,45523,-77.938363,-35.670200
José Ángel Manzanares Moliner,59,Acceso Áurea Lamas 592,Castellón,León,38521,-136.367136,-18.865375
Aarón Tomas Leal,19,Cuesta Patricia Rocha 18 Apt. 00 ,Ceuta,Córdoba,10296,82.409005,16.3691565
Evita Nuñez-Peña,41,Camino de Guiomar Pérez 87,Toledo,Murcia,28929,-105.729897,72.665848
Anastasio Plinio Terrón Gilabert,21,Pasaje de Ángela Tamayo 48,La Coruña,Alicante,39438,47.081247,89.2297215
Cebrián de Cuadrado,22,Vial de Rodrigo Bernat 303,Burgos,Cádiz,37823,-98.583246,-72.930922
Andrea Iborra Artigas,41,Glorieta de Amada Chacón 12 Apt. 11 ,La Coruña,Valencia,22236,-141.578341,-87.110187
Albano Casas Cáceres,70,Acceso Lilia Mayo 83 Apt. 94 ,La Rioja,Castellón,43728,104.650495,-1.052412
Georgina Huerta Santiago,47,Via Nadia Escrivá 19 Apt. 30 ,Baleares,Cádiz,33574,112.865072,82.0642165
Paula Hoyos Milla,45,Rambla de Anabel Elías 14 Apt. 16 ,Granada,Melilla,25220,-52.613092,34.5252125
Yolanda Sacristán Escamilla,50,Plaza de Pascuala Grande 88 Apt. 60 ,Badajoz,Álava,07265,114.638771,75.8272915
Cruz Barrena-Morillo,38,Vial de Quique Calleja 13,Alicante,Vizcaya,44667,-96.308625,80.883668
Bibiana Canals,68,Cuesta de Rocío Tormo 36,Zamora,Teruel,06193,-157.819365,-28.8855585
Olga Maza Cañizares,48,Acceso Lorena Badía 29 Puerta 3 ,Burgos,Ourense,42811,130.875529,15.368694
Loreto del Vendrell,78,Glorieta de Diana Aramburu 2 Piso 8 ,Lugo,Lugo,18843,-172.618975,-47.0454975
Poncio Ortiz,41,Cuesta de Dominga Torrens 1,Málaga,Córdoba,04765,98.933270,27.250177
Abilio Rius Zaragoza,66,Acceso de Iván Carvajal 8,Ávila,La Coruña,34241,-32.974550,-25.1196675
Faustino del Segarra,73,Cañada de Jessica Granados 808,Las Palmas,Badajoz,28260,12.068336,-89.9321945
Telmo Tenorio Cañizares,38,Acceso de Carmelita Navarrete 42 Piso 7 ,Badajoz,Cáceres,37715,25.156780,15.786322
Jesús Catalá Galan,48,Paseo Adriana Almansa 5 Puerta 0 ,Las Palmas,Murcia,09045,-146.906490,79.037507
María Fernanda Jerez,80,Acceso de Nydia Seco 71 Puerta 6 ,Huelva,Vizcaya,12012,-29.060916,-18.702450
Remigio Chus Moles Andrade,29,Pasaje Nilo Fuente 64,Salamanca,Cádiz,46265,4.521151,65.835491
Tristán Reina Tamayo,41,Alameda de Petrona Ibañez 4,Barcelona,Pontevedra,34995,83.477062,-56.793477
Íñigo Ayala Nieto,19,Cañada de Severiano Español 94 Puerta 8 ,Melilla,Huesca,15871,157.943717,-47.637420
Carmelo Aroca Luque,20,Ronda Armando Tormo 61 Piso 7 ,Ávila,Toledo,46290,-175.918183,2.7859815
Benito Rodríguez-Lobato,72,Calle Nicodemo Avilés 87 Apt. 09 ,Lleida,Girona,30633,-99.092988,-82.197263
Juanita Barbero Ballesteros,69,Cuesta Samu Pérez 51,La Rioja,Lleida,51046,-115.343231,-57.803270
Guiomar Parejo Caparrós,36,Acceso de Vera Botella 93,Guipúzcoa,Tarragona,38316,-137.635349,35.611311
Juan Antonio Pascual Rojas,72,Camino de Antonio Carpio 37 Piso 6 ,Huelva,Huelva,12895,93.353048,39.0669735
Cintia Nicolás-Molina,25,Vial Graciana Olmedo 470 Apt. 67 ,Vizcaya,Barcelona,33398,85.830494,9.853717
Venceslás Bueno Feliu,49,Plaza Lupe Santiago 35 Puerta 3 ,Huelva,Las Palmas,31598,-36.229678,-88.9272085
Itziar Asenjo-Valero,47,Via Mateo Sierra 644,Burgos,Cáceres,50503,21.171266,-66.8964185
Moreno Villalba Hervás,62,Via Inocencio Correa 232 Puerta 5 ,Málaga,Segovia,28895,138.024428,48.7863015
José Ángel Arana,27,Alameda Rodrigo Segura 1 Apt. 07 ,Melilla,Ávila,31590,-133.112610,-84.1923065
Geraldo Guitart Torrents,66,Cañada María Jesús Correa 89,Burgos,Santa Cruz de Tenerife,16256,83.482454,-20.120767
Angelita Sevillano Tejero,19,Rambla Isidro Sarabia 26 Apt. 28 ,Santa Cruz de Tenerife,Segovia,18581,7.382438,-62.9331355
Margarita Ortega Bou,39,Calle de Encarnita Castejón 53,Tarragona,Toledo,19521,-18.116388,-49.763246
Petrona Vallés Bermúdez,30,Cuesta Miguel Ángel Cañas 378,Castellón,Cuenca,29451,133.121288,76.952931
Luciana Cózar,70,Via Edelmiro Gibert 64,Burgos,Melilla,19128,-81.756174,-30.434152
Itziar Aznar-Folch,32,Acceso Apolonia Carrión 83,Córdoba,Teruel,20448,-43.586333,-9.2778875
Imelda Martin Pomares,32,Glorieta Máxima Cobos 49,Lugo,Castellón,23330,-168.984246,18.7542725
Miriam Ródenas Corral,70,Calle de Lucio Velasco 88 Piso 7 ,Badajoz,Cáceres,42276,10.666124,83.6045605
Ariel Clotilde Carnero Valera,54,Rambla de Jovita Bayón 33,Zamora,Huesca,20586,109.893278,33.4369995
Eliseo Carreras Sáenz,34,Cañada Borja Martínez 178 Piso 8 ,Santa Cruz de Tenerife,León,46988,109.789082,-14.523118
Angelino Iglesia Valencia,60,Avenida de Elías Barbero 26,Zamora,Zaragoza,10937,125.743158,-76.9298305
Reinaldo Pozuelo Meléndez,75,Calle de Gracia Amador 4 Piso 7 ,Lugo,Málaga,51635,95.364519,69.2343825
Irene Rivero,53,Avenida Tecla Sanjuan 365 Puerta 7 ,Madrid,Guipúzcoa,12846,-56.057969,44.289625
Bruno del Guitart,45,Via Marcelo Camps 99,Vizcaya,Segovia,48987,32.144034,-65.106007
Santiago Quirós,74,Cuesta de Elías Botella 40,Segovia,Albacete,38546,37.501030,-58.683940
Itziar Arco Piñeiro,21,Glorieta de Pío Muro 71,Melilla,Huelva,09084,-151.299793,18.9411785
Cornelio Alarcón Ropero,36,Plaza Ciriaco Exposito 494,Valencia,Lleida,15544,171.982302,68.3768225
Elisa Florentina Carreño Ortiz,43,Callejón de Noelia Ramón 20 Puerta 5 ,Granada,Jaén,27461,143.835390,-84.5123035
Carina del Quesada,57,Rambla Marc Narváez 37 Piso 5 ,Las Palmas,Málaga,48353,-117.387876,15.216138
Celia Gelabert Benavent,30,Callejón de Oriana Bermudez 55,Huesca,Sevilla,37396,114.667370,12.5471145
Hernán Zorrilla,25,Cuesta Valeria Garriga 9 Puerta 2 ,Burgos,La Rioja,09671,-51.759154,76.0839175
Leonor del Andreu,33,Camino de Chelo Sans 82,Jaén,Badajoz,29420,6.921870,-70.0427965
Laura Marí-Santiago,55,Camino de Rosario Carmona 92 Apt. 53 ,Santa Cruz de Tenerife,Ourense,21621,164.078539,6.242620
Gabino Benavente Beltrán,25,Glorieta de Elba Aparicio 28,Granada,Guadalajara,14227,-167.753579,71.701044
Valeria Gertrudis Río Larrea,26,Alameda Joel Romeu 56,Melilla,Lleida,28165,77.509551,-20.257373
Isabel Vara Granados,80,Rambla Dorita Palomo 686 Piso 9 ,Lugo,Ávila,42978,132.162855,30.3367705
Paulina Escrivá Padilla,21,Paseo de Calista Calzada 558 Apt. 83 ,Pontevedra,León,41630,143.781546,-46.614731
Constanza Nicolau Salvador,66,Callejón Florencio Falcó 947 Apt. 14 ,Cantabria,Teruel,16404,53.137713,5.183669
Gil Garmendia,75,Pasadizo de Iris Ricart 96 Piso 2 ,Cuenca,Salamanca,16037,119.998261,1.659341
Cebrián Diaz Cases,30,Ronda Joan Colom 3,Girona,Castellón,12398,159.358568,-79.8699595
Ciriaco Camino Benet,79,Avenida Emma Garzón 9,Guadalajara,Ávila,17326,123.000390,-88.493845
Hilario Luís Carrera Elías,66,Alameda Pepita Mendoza 1,Cáceres,Ávila,40129,40.870000,-7.745840
María Carmen Infante-Canals,69,Alameda Jose Peñas 223 Piso 5 ,Cáceres,Zaragoza,25173,-162.852391,67.5501475
Manu Franco Pintor,62,Vial Ibán Feijoo 539 Apt. 73 ,Murcia,Pontevedra,41385,-143.327014,-82.616305
Jose Antonio Morante Cañete,19,Calle de Guadalupe Reguera 9 Piso 4 ,Sevilla,La Rioja,22943,34.882854,77.312703
María Carmen Tatiana Martínez Osuna,74,Calle de Samanta Solé 787 Apt. 58 ,Toledo,Ourense,28591,-78.807416,29.8414875
Albano Barrios Bayona,80,C. Rosenda Borrego 4,Valladolid,Soria,24583,66.998567,3.0547405
Maura Cortes-Ramos,76,Ronda de Feliciano González 69,Sevilla,Valladolid,13727,84.156555,-73.0322755
Paulino Esparza Abellán,72,Vial Nando Pou 57 Apt. 37 ,Guadalajara,Cantabria,45021,131.901696,-26.2660925
José Manuel Mena-Oliveras,44,Callejón de Nicodemo Dominguez 472,Zaragoza,Almería,01538,-72.276007,22.811475
Débora Antúnez Hoyos,31,Urbanización Benito Alsina 68 Piso 5 ,Granada,Granada,26486,91.214857,-1.5326175
Emelina Capdevila Torre,35,Glorieta Zoraida Fuente 87,Burgos,Vizcaya,21174,143.064868,72.2050895
Emiliano Frutos-Moraleda,60,Alameda Marianela Bustamante 85 Piso 5 ,Segovia,Zaragoza,16899,-74.399447,-11.3876855
Nerea Figuerola-Font,23,Plaza Nydia Salgado 9 Apt. 70 ,La Rioja,Asturias,46589,67.089926,78.9375175
Mamen Andres Ugarte,47,Cañada Iván Cuéllar 373 Piso 4 ,Castellón,Granada,49036,-123.439159,52.3453825
Simón Canals Salvà,28,Cañada de Pepita Villaverde 63,Lugo,Guipúzcoa,44427,-170.144065,32.3481375
Julieta Mascaró Gomila,32,Glorieta de Geraldo Casal 5 Apt. 60 ,Albacete,Lugo,15994,141.988102,-57.716323
Albert del Villalonga,47,Pasaje Marco Casals 24 Piso 0 ,Baleares,Girona,47587,-52.982092,86.2285505
Chelo Blanes Blázquez,67,Callejón Valentín Mesa 37,Sevilla,Granada,42925,-105.239487,78.9542365
Reina Perea Carrasco,54,Plaza de Marcia Escudero 72 Apt. 55 ,Tarragona,Ourense,03889,69.305873,-89.1428065
Sosimo Granados-Ferrer,76,Via Morena Feijoo 7 Apt. 48 ,Valladolid,Lugo,24809,-65.452885,-77.6915745
Loida Carballo Salvador,44,Urbanización Carlos Tamayo 56,Almería,Murcia,06099,47.151521,-26.2175555
Buenaventura Sevilla Quesada,70,Cuesta Catalina Ripoll 8 Puerta 8 ,Madrid,Las Palmas,42327,-11.904364,-21.7862295
Elodia Armas Castro,61,Plaza Sol Estrada 2,Valladolid,Soria,19742,-113.821737,27.561892
Marcial Pedrosa-Mendez,72,Glorieta Alonso Escribano 47 Piso 3 ,Almería,Murcia,50392,-147.715780,-85.5343135
Prudencio Salazar Torrents,63,Camino Pilar Pina 5,Guipúzcoa,Asturias,45448,-21.397833,-29.951017
Marisa del Feijoo,26,Ronda Flavia Beltran 57 Puerta 3 ,Granada,Pontevedra,27096,-62.226656,-85.3515965
Graciana Ariza Martorell,60,Paseo Ainoa Querol 8,Toledo,León,12713,59.263224,0.6643975
Asdrubal Puente-Gómez,36,Alameda Felisa Arrieta 1 Piso 2 ,León,Cantabria,41942,51.051146,59.609583
Carmelo Cuadrado Bautista,58,Camino Amador Galindo 45 Piso 0 ,Zamora,Zamora,37558,-156.631442,-38.530082
Noa Sola Pozuelo,46,Calle Lucía Carvajal 54,Zamora,Palencia,03233,-116.530450,-21.1172465
Teófilo Carbonell Arnaiz,71,Rambla Yago Estevez 33 Puerta 2 ,Córdoba,Girona,45408,-145.930042,33.1846265
Jennifer Carro Rivas,29,Cuesta de Enrique Gutierrez 2,Ceuta,Castellón,50477,-19.499124,-43.831907
Bernardita Molina Viana,51,Calle de Carla Marqués 64,Málaga,Álava,18608,85.352080,-28.208811
Ernesto Valerio Benavent Arnaiz,39,Calle de Alma Cabeza 62 Piso 4 ,Ciudad,Albacete,10018,-154.431690,-70.7327765
Custodio Arellano,47,Acceso Encarnacion Roldan 5,Valencia,Málaga,23067,-90.074601,-5.514449
Coral Arco Arcos,36,Plaza Juan Carlos Goñi 25,Badajoz,Girona,18504,5.702244,35.0175075
Natalio Abad Lozano,32,Urbanización de Rodrigo Folch 78,Pontevedra,Santa Cruz de Tenerife,10278,-146.608688,31.5542655
Noelia Falcó Pazos,56,Cañada de Celestina Ariza 15 Piso 9 ,Las Palmas,Murcia,35581,115.644287,-68.278494
Fabiana Terrón,73,Cañada de Leandra Cerdán 10 Puerta 2 ,Ourense,Ciudad,22477,-127.696700,29.910029
Reinaldo Valle,45,Acceso de Cosme Amaya 24,Las Palmas,Teruel,03033,61.862475,-26.132140
Melisa del Bonet,75,Acceso Reyna Escrivá 56,Huesca,Albacete,06609,137.094841,61.0977695
Fabio Capdevila Portero,28,Urbanización Moreno Perea 36,Tarragona,Zaragoza,35538,58.674278,44.702957
Hilda del Díez,32,Ronda Calixto Benavent 8 Apt. 78 ,Alicante,Baleares,11857,166.552545,-78.221634
Florentino Parejo Martorell,46,Rambla de Samu Gomis 207 Puerta 2 ,Murcia,Albacete,41701,-54.564728,-72.8082875
Julio del Alcántara,52,Acceso de Aurelia Ramos 28 Piso 4 ,Tarragona,Girona,17602,25.171800,70.1509295
Estefanía Paca Cal Piña,59,Acceso Máximo Lillo 166,La Coruña,Baleares,49921,-157.970465,-60.9600885
Samanta Tenorio Ruano,66,C. de Encarnación Cortina 91,Girona,Almería,08888,174.278363,-45.184274
Pastor Lobo Pera,48,Pasaje Nacho Morales 27 Puerta 9 ,Tarragona,Segovia,25461,28.745055,-28.0158715
Marisol Velasco Lasa,45,Vial Emelina Abella 36 Piso 2 ,Almería,Asturias,02529,-53.346883,-0.027412
Rosenda Blanca Garcés Díez,71,Urbanización Marisol Perera 164,Asturias,Toledo,51072,105.525417,46.807221
María Sanjuan-Alberdi,66,Camino Julio Bonilla 29 Piso 4 ,Santa Cruz de Tenerife,León,36920,140.414816,-12.1519315
José Manuel Landa Guerra,72,Pasadizo de Felicidad Tamarit 23,Albacete,Guadalajara,38739,3.648812,-57.422337
Rosaura Abigaíl Guitart López,37,Via Alexandra Fuentes 62 Puerta 7 ,Zaragoza,León,30813,-32.699263,-85.4435845
Cristina Pinto Pedrero,71,Plaza de Eva María Bernad 46 Piso 5 ,La Coruña,León,22288,139.289084,62.229632
Margarita de Sandoval,22,Glorieta de Balduino Espinosa 6 Puerta 2 ,Asturias,Madrid,50813,74.451008,-67.4582605
María Fernanda Calatayud Espejo,42,Calle Fito Vera 94,Guadalajara,Málaga,15844,4.305811,-41.921677
Ibán Gomila-Laguna,38,Alameda Natalia Barco 988,Sevilla,Granada,26603,-29.183973,41.060019
Rufina Calixta Peral Vega,78,Avenida Paz Barrios 31,Guipúzcoa,Zaragoza,16170,-158.471619,27.9242115
Mauricio de Guardia,79,Rambla Nydia Ibarra 286 Piso 8 ,Lleida,Asturias,19131,58.554757,-26.1597295
Reinaldo Escrivá,22,Alameda de Vidal Manjón 66,Cuenca,Córdoba,51821,89.320129,-78.7821275
Noemí Alsina Pomares,33,Ronda de Juan Francisco Vila 776 Apt. 29 ,Vizcaya,Ciudad,25336,156.845666,-67.822716
Teresa del Paredes,72,Urbanización Brunilda Abad 53,Tarragona,Las Palmas,34426,-127.553692,44.9928475
Adelia Gracia Cózar Morán,79,Acceso Cleto Bayona 55,Alicante,Cantabria,40326,126.849024,63.7784985
Julia Amat Gámez,34,Avenida de Consuela Ruano 8 Apt. 55 ,Barcelona,La Rioja,32030,-106.680593,-58.4389715
Arcelia Josefa Sanjuan Larrea,71,Callejón Gabriel Franco 27,Asturias,Palencia,48850,173.755259,-28.9782695
Esperanza Berrocal Lladó,39,Callejón Encarnación Álvaro 3,Huesca,Santa Cruz de Tenerife,27424,-95.354471,-15.0662015
Custodia Sanz Cobo,72,Glorieta Pacífica Gutierrez 24 Puerta 1 ,Melilla,Barcelona,33399,100.025904,14.296412
Nazaret Anguita Abad,79,Callejón Alondra Goñi 12,Ávila,Lleida,07988,-120.781825,-6.773917
Bienvenida Egea-Meléndez,48,Vial de Flavio Poza 93 Piso 8 ,Cáceres,Madrid,36274,-96.628431,61.2281845
Francisco Clímaco Azcona Quevedo,19,Pasaje de Marcelo Montenegro 30 Piso 2 ,Sevilla,Jaén,04106,-90.186379,-10.203513
Lope Infante-Villena,36,Paseo Gastón Mateo 57 Apt. 98 ,Navarra,Valladolid,51787,104.659564,-50.0134335
Ramón Lluch Leon,24,Glorieta de Salomón Valle 20 Puerta 9 ,Las Palmas,Asturias,03548,100.479869,-45.553945
Hernán Mateos,75,Pasaje Débora Beltrán 5 Piso 0 ,León,Badajoz,39093,164.947277,-71.084247
Custodio Sanmartín Adadia,24,Acceso de Joaquín Mir 3 Puerta 6 ,Baleares,Sevilla,07726,76.763973,42.4617185
Flavio Marcos Carlos Gisbert,35,Glorieta Alex Tenorio 438 Piso 9 ,Girona,Burgos,50376,97.039520,51.430097
Juanito Valentín Estrada,73,Acceso de Candelaria Bartolomé 7,Valencia,Santa Cruz de Tenerife,18726,127.182523,55.141657
Lilia Olmedo Malo,39,Pasadizo Odalis Morcillo 3,Lugo,Ciudad,01466,-9.223638,1.4751055
Rosalva Fiol Rodríguez,37,Pasaje Natalia Puig 7,Zaragoza,Málaga,01805,35.104006,59.453326
Juan Carlos Vilaplana Llabrés,63,Via de Nazaret Espejo 7 Apt. 88 ,Ávila,Vizcaya,15874,144.514911,-78.4101105
Anselmo de Carreras,57,Avenida Ariadna Colom 92,Álava,Murcia,15356,90.137847,-56.682874
Obdulia Bueno Ramón,60,Via de Catalina Sevillano 83,La Coruña,Almería,38536,168.995668,-53.7316355
Seve Camilo Jódar Viana,43,Paseo Cloe Goñi 59 Apt. 49 ,Teruel,Tarragona,18022,-175.050952,24.901044
Adoración Coral Araujo Robledo,23,Glorieta Manola Blázquez 6 Piso 0 ,Castellón,Lleida,23136,142.253886,-66.6810545
Nélida Ortega,59,Callejón de Casandra Vives 37 Puerta 0 ,Girona,Guadalajara,17732,-164.321058,44.8247655
Diego Galo Fabregat Abad,49,Alameda de Anastasia Marí 13,La Coruña,Lleida,02533,124.099164,-16.7520895
Claudia Mayol Arias,23,Urbanización Leonardo Quero 83 Piso 4 ,Guipúzcoa,Guipúzcoa,41002,-138.257936,29.661505
Faustino Roman Valenzuela,42,Callejón de Fanny Larrea 49,Ourense,Tarragona,24292,-83.563731,61.047372
Cornelio Pelayo Teruel,49,Avenida de Magdalena Ropero 21 Apt. 77 ,Lleida,Madrid,43143,7.088283,-22.9225695
Bibiana Vera Varela,69,Vial Desiderio Hervia 45,Almería,Guipúzcoa,41625,175.942406,-56.442604
Reina Gimenez Barco,60,Urbanización Roxana Crespo 31,Ourense,Valencia,34889,-5.119061,-54.0723735
Iván Comas Uriarte,70,Cañada de Sancho Juliá 53 Puerta 8 ,La Coruña,Ourense,10185,-19.395639,-41.963808
Noa Andrade Coloma,80,Calle de María Dolores Rios 1 Apt. 42 ,Guipúzcoa,Melilla,01535,-169.500970,-7.1039805
Eloísa Manzanares Salamanca,54,Vial Eliana Fuente 16,La Rioja,La Coruña,48501,43.130599,-8.1418635
Jennifer Seco Domingo,45,Camino Aurelia Frutos 85,Vizcaya,Navarra,39164,-34.390385,-15.6038165
Azahar de Uría,79,Glorieta de María Manuela Serra 50,Ávila,Cantabria,27531,16.638190,54.3045805
Encarna Barrena Barba,33,Alameda de Vasco Amador 99,Asturias,Cantabria,30779,52.598432,64.156247
Luciano Múñiz Losada,62,Calle Leoncio Valderrama 79 Puerta 8 ,Ávila,Girona,31069,0.050665,17.702083
Melchor Natalio Lastra Nogués,58,Ronda Victoriano Huerta 5 Puerta 1 ,La Rioja,Tarragona,51939,49.137836,55.9972695
Luis Calixto Tenorio Calzada,75,Avenida Susana Ferrera 9 Apt. 19 ,Álava,Ourense,10999,43.653709,46.584408
Germán Montenegro Viana,80,Alameda Gil Lastra 85 Piso 2 ,Girona,Madrid,22356,-33.072468,21.513359
Victoria del Barral,62,Pasadizo de León Montserrat 38,Cáceres,Pontevedra,38169,128.601383,14.709331
Anastasio Simó Prieto,21,Avenida Maricruz Manrique 31,Ourense,La Rioja,06823,161.822579,-13.736045
Eladio de Riba,71,Cañada de Gracia Gutiérrez 233 Apt. 23 ,Segovia,Cádiz,45436,-135.730887,22.383524
Cecilia Mateos-Córdoba,36,Callejón de Ibán Madrid 600,Palencia,Córdoba,19302,-85.250638,67.4547555
Felipe Padilla-Perez,45,Via Florencia Blanch 34,Ciudad,Navarra,50272,122.014155,32.592633
Trinidad Armas Manzano,56,Pasaje Leire Gascón 3,Guipúzcoa,Cádiz,01475,-70.685539,89.4924825
Nacho Nieto Anglada,52,Glorieta de Benigna Franco 78 Puerta 5 ,Cádiz,Pontevedra,25020,110.980874,84.679107
Osvaldo Ulises Diéguez Téllez,52,Calle Esther Anguita 74 Piso 1 ,La Rioja,Ciudad,25616,71.208966,11.477369
Mamen Coloma Cuevas,33,Calle Leyre Arranz 58,Guipúzcoa,Teruel,20311,120.893223,38.819031
Fanny Ortega,53,Pasadizo Sabina Lozano 89 Puerta 1 ,Barcelona,Soria,03324,-150.454448,-57.0559255
Primitiva Poza Hervia,23,C. Dafne Franco 743 Apt. 74 ,Lleida,Ciudad,13540,-52.221215,11.622974
Quique Pérez Salgado,21,Callejón de Alicia Arnau 33,Girona,Almería,50874,149.182364,85.753371
Hector Montesinos-Mur,47,Rambla Clotilde Valero 3 Puerta 7 ,Madrid,Palencia,04689,-161.999582,-16.3727725
Laura Flora Company Pulido,50,Glorieta de Casemiro Silva 18 Piso 1 ,Soria,Salamanca,36230,-130.365936,-72.6440715
Carmina Manrique Francisco,79,Acceso de Ximena Ibáñez 3 Puerta 2 ,Barcelona,Guipúzcoa,39976,-99.290382,55.400031
Arturo Álvaro Pérez,31,Vial Berta Rosell 53,La Coruña,Cuenca,18037,130.604377,47.751938
Camilo Cáceres Carrión,49,Glorieta Juan Pablo Mármol 7 Puerta 3 ,Albacete,Granada,09713,139.785969,64.120550
Anabel de Ferrández,72,Urbanización de Gema Heras 608 Puerta 8 ,Vizcaya,Cuenca,18819,41.477278,-42.128700
Celestino Viñas Zorrilla,32,Alameda Edu Ros 793,Zaragoza,Cádiz,26079,88.283242,68.4422545
Mohamed de Collado,68,Camino Roberta Rocha 13 Puerta 8 ,León,Albacete,50083,178.656860,65.2997635
Samu Puig Quintana,72,Alameda de Paola Naranjo 49,Ciudad,Sevilla,22262,90.580541,5.191890
Olegario Chacón Sevillano,35,Glorieta Melisa Benavente 688 Piso 2 ,Cantabria,Ceuta,42045,89.892519,-61.0847005
Oriana Chamorro Ochoa,50,Alameda Jonatan Camino 17,Lugo,Lugo,33893,75.414835,83.533038
Selena Acero Llorens,61,Glorieta Maura Gual 558 Apt. 35 ,Madrid,Albacete,27703,156.545162,82.013054
Horacio Llobet-Jerez,55,Plaza Federico Larrea 18,Málaga,Asturias,16367,163.053861,9.6734845
Duilio Berrocal,39,Paseo René Lladó 95,Cuenca,Zaragoza,26706,137.211216,72.982664
Tiburcio Acuña-Galvez,48,Vial de Concha Cervera 921,Lugo,Palencia,09096,63.096702,-87.035064
Hector Enríquez Castrillo,63,Cañada Paca Pallarès 8 Piso 0 ,Guipúzcoa,Vizcaya,33177,116.174031,36.4420965
Lucio de Bello,37,Ronda de Vanesa Llorente 4,La Rioja,Tarragona,32826,-21.631960,49.557961
Araceli del Portillo,76,Plaza de Ciriaco Anaya 4 Puerta 9 ,Cuenca,Málaga,10329,-97.194705,-46.6679915
Feliciana Giner Domínguez,42,Pasaje de Melania Elorza 53,Lugo,Melilla,34384,-70.281056,34.7840775
Maxi de Lumbreras,76,Vial de Belen Barrena 31,Granada,Zamora,02279,-146.609371,-73.3038675
Ximena Beltrán Vilanova,34,Alameda de Mayte Aller 20,Pontevedra,Zaragoza,06199,-10.346443,-23.970405
Ibán Núñez-Amat,38,Ronda de Danilo Bernat 24,Guadalajara,Vizcaya,19749,59.988949,-23.2769035
Elba Román Tur,73,Paseo Íngrid Rosa 72 Apt. 41 ,Asturias,La Rioja,25717,-127.872574,3.1289555
Paulina Adán Bejarano,33,Avenida de Jordi Rojas 58,Zaragoza,Granada,01915,39.289684,70.100995
Luis Arnau Bermudez,18,Via Maricela Borrego 357,La Coruña,Cádiz,26119,-25.292581,-34.2339665
Simón Trillo Oliva,39,Cañada Benigno Gallart 90 Piso 8 ,La Coruña,La Coruña,09307,115.054989,41.7252045
Ciro Ureña Chaves,76,Avenida Heriberto Coloma 7 Piso 5 ,Cáceres,Lleida,35822,86.606105,75.3351845
Néstor Meléndez Salcedo,79,Pasadizo Isaías Salamanca 3 Puerta 4 ,Zamora,Albacete,01512,103.980016,12.860799
Luna Cuesta Acosta,28,Rambla de Adoración Martín 9 Puerta 6 ,Valencia,Pontevedra,19028,153.797034,19.230512
Fanny Sebastián Bonet,35,Acceso de Reina Luz 37,Navarra,Murcia,48301,47.210599,-26.5047035
Chelo de Palacio,75,C. Abilio Jaén 53 Piso 0 ,Madrid,Zamora,40343,-153.748121,82.299449
Jordán Valls Vergara,27,Via Ángel Zamora 39,Palencia,Madrid,10691,-27.467469,-58.841978
Luis Miguel Burgos,61,Cuesta Eli Castells 83 Apt. 72 ,Toledo,Huesca,02764,175.956746,-51.9440535
Lina Soriano-Sedano,55,Glorieta Ámbar Samper 4,Murcia,Asturias,21134,-32.695116,-28.7522765
Emelina Villaverde,24,Pasaje de Jose Ramón Checa 521 Piso 6 ,Almería,Asturias,02296,41.776778,-81.9227265
Edmundo Aguilera Hoyos,59,Acceso Nazaret Carreras 35,Jaén,Granada,02218,160.572741,-27.3839715
Jenny de Uría,80,Paseo Nicanor Carrasco 9,Sevilla,Asturias,16762,107.692880,-14.794895
Humberto Reig Alfaro,39,Cañada Ana Cazorla 24 Apt. 87 ,Almería,Asturias,28553,-135.692870,-48.3377785
Fabio Adrián Marti Goicoechea,24,Rambla Zoraida Llanos 4,La Rioja,Ourense,03052,63.844158,80.4166775
Pascual Roberto Criado Amador,53,Plaza de Gertrudis Anaya 41 Puerta 1 ,Vizcaya,Ceuta,17409,159.091267,85.254863
Consuelo Font Peláez,44,Avenida Bernarda Cano 5 Apt. 72 ,Lugo,Jaén,02066,-79.491532,73.433267
Severo Vilar Izquierdo,32,Pasaje Lucía Cueto 19,Cuenca,La Rioja,27909,72.474251,-71.4276495
Pili del Guitart,79,Pasaje Reynaldo Huerta 84,Barcelona,Segovia,44387,-65.396661,31.427063
José María de Tejera,47,Vial de Carmen Barón 92 Piso 1 ,Melilla,Pontevedra,40699,46.140334,-89.4607685
Ignacio Padilla,44,Plaza de Elodia Catalá 32 Apt. 96 ,Almería,Málaga,32823,-46.020095,20.5131015
Graciano Lobo-Bartolomé,31,Paseo Isabela Carbajo 45,Badajoz,Badajoz,29160,88.759410,57.3335635
Pedro Infante Córdoba,34,Avenida de Vinicio Lumbreras 65,Valladolid,Ceuta,47108,29.394609,24.4287165
Rómulo Manzanares Galván,42,Ronda Nadia Silva 17,La Rioja,Cádiz,10466,-70.695952,-53.062571
Felisa Flora Nevado Morera,64,Pasaje de Pía Zabala 65,Zaragoza,Málaga,23288,-19.964470,76.873007
Camila Bustamante-Raya,67,Avenida de Noemí Arco 13,Badajoz,León,13684,159.144386,54.3332605
Bartolomé Chema Iniesta Galan,79,Rambla Eusebia Muro 32,Cáceres,Segovia,35715,155.030753,57.151171
Borja García Múñiz,42,Avenida Dora Calleja 73 Piso 9 ,Vizcaya,Santa Cruz de Tenerife,17128,-41.091516,-20.6148915
Silvia Pozuelo Teruel,65,Urbanización Mónica Mena 64 Puerta 8 ,Ávila,Barcelona,26691,175.269742,-19.1935785
Olalla Rosales-Barberá,38,Glorieta de Montserrat Revilla 87 Apt. 94 ,Alicante,La Rioja,06009,23.477644,34.4181685
Nydia Cerdán Portero,53,Camino de Armida Pedrero 40,Palencia,Jaén,25814,108.917215,23.4589675
Manuelita Molins Garzón,32,Pasadizo Ismael Arenas 10,Toledo,Asturias,17491,-146.948276,-86.805731
Dominga Rey Serra,22,Urbanización Anselmo Cuenca 19 Piso 3 ,Ceuta,Zamora,11407,-173.801485,-76.3640685
Segismundo Donaire Abad,33,Cañada de Édgar Zabala 579 Puerta 5 ,La Rioja,Albacete,43603,95.898399,31.457920
Ismael Bauzà Reguera,57,Glorieta de Cruz Gómez 40 Apt. 55 ,Badajoz,Guipúzcoa,10719,-118.393755,17.7499915
Georgina Maestre Zaragoza,27,Alameda de Baldomero Moreno 89,Ceuta,Soria,51929,-36.566480,25.6092155
Amanda Garay Crespo,64,Urbanización Isidora Barreda 48 Apt. 47 ,Cádiz,Ávila,26479,-156.440010,65.003520
Manu Esparza Saez,69,Via de Trinidad Casanovas 31,Sevilla,Asturias,13501,-58.569063,12.446090
Segismundo Peñalver Cabañas,37,Avenida de Alba Larrea 47 Piso 7 ,Huesca,Segovia,13588,-126.014900,71.6637635
Cándido Melero,63,Alameda Plinio Pujadas 7 Apt. 85 ,Salamanca,Valencia,09208,115.782067,-6.702603
Jenaro Sanmartín Mesa,70,Ronda de Román Isern 3,Santa Cruz de Tenerife,La Rioja,21336,-106.135135,44.283529
Ariadna de Solsona,64,C. Alex Barba 750,Vizcaya,Pontevedra,10359,152.941880,33.027824
Enrique Puga Prada,58,Calle Octavia Blazquez 64,Granada,Alicante,26969,-71.426739,-12.9549075
Leonel Cabello Torralba,73,Urbanización Maricruz Sarmiento 82,Palencia,Álava,18523,-75.709297,-89.591711
Máxima Roig,27,Urbanización Eladio Garay 9,Vizcaya,Salamanca,16465,-74.894028,-87.375841
Mamen Acuña Carrillo,64,C. Josefina Jover 1 Piso 7 ,Girona,Sevilla,33719,-125.406774,-88.0859355
Gabriela Madrid Reyes,40,Alameda de Vito Rueda 698 Piso 9 ,La Coruña,Lleida,27238,170.088738,1.092996
Bernarda Palomino Leal,66,Cuesta de Etelvina Bernat 47,Guipúzcoa,Jaén,36312,-90.748058,-77.144505
Paulina Perez-Escudero,56,Vial de Paulino Morales 9 Puerta 9 ,Ávila,Soria,48465,-160.786790,-10.680755
Andrés Navas-Cabrera,53,Paseo de Carolina Larrea 98 Puerta 3 ,Valencia,Álava,40135,-136.451813,47.9883025
Olga Joaquina Godoy Manso,64,Urbanización Moreno Ibarra 75 Piso 2 ,Palencia,Lleida,50331,-163.803143,-38.215441
Isidro Galiano Valentín,70,Urbanización de Pacífica Lobato 43 Piso 1 ,Lleida,Ciudad,28642,-109.450688,24.3881005
Patricia Casandra Barrios Delgado,79,Glorieta Dora Carrasco 41,Segovia,Ourense,50128,120.923068,-45.882563
Elías Bastida Reig,39,Acceso de Mario Carballo 23,Almería,La Coruña,45669,137.928486,79.370068
Darío Fabregat Feliu,33,Plaza Berta Jover 39,Lugo,Barcelona,49667,112.178963,0.2007055
Héctor Lillo,29,Pasadizo de Rosendo Bayón 33 Puerta 7 ,Jaén,Málaga,07586,-154.814605,25.8942175
Melchor del Campo,51,Pasadizo Febe Arcos 935 Piso 7 ,La Coruña,Guipúzcoa,51127,-98.257966,-12.0637145
Dionisio Custodio Palomares Cervantes,21,Camino Nayara Olmo 80 Apt. 87 ,Almería,Valencia,38686,-82.313407,-0.737125
Carmelita Leocadia Sarmiento Escalona,74,Pasadizo Adelardo Borja 69 Puerta 9 ,Barcelona,Murcia,48736,-26.748592,18.049884
Lorenza Román Ariza,33,Calle Cornelio Franco 23 Apt. 89 ,Toledo,Álava,06929,-120.791065,-9.8247325
Estrella Aragón Falcó,31,Via Danilo Pino 7,Castellón,Tarragona,43514,162.345269,2.7568475
Jordana de Fuertes,70,Pasadizo Toribio Guillen 14 Puerta 6 ,Huelva,Tarragona,38739,-82.857438,-41.8857745
Teófila Trujillo Pallarès,64,Alameda Emelina Vergara 10,Cantabria,Álava,50648,112.706321,29.2740485
Leoncio Posada Puig,75,Acceso de Herberto Verdú 6 Puerta 0 ,Castellón,Huesca,38795,3.895872,-16.8201555
Gisela Ribes Rodrigo,50,Avenida Ana Sofía Llobet 5 Puerta 8 ,Murcia,León,05890,72.085563,-11.384857
Mariana Cayetana Cámara Aguilar,19,Alameda Jerónimo Rebollo 60,Santa Cruz de Tenerife,Navarra,36930,139.663323,-63.9712715
Ainoa Cuevas,54,Glorieta de Emiliana Garcia 74 Piso 7 ,Huelva,Zamora,04236,111.208971,-25.1972365
Ruben España Almeida,68,Alameda María Pilar Arribas 83,Huelva,Málaga,31032,161.239364,55.1864125
Marisol Cal-Medina,23,Cañada de Santos Rueda 2 Piso 9 ,Salamanca,Navarra,04135,-0.761172,37.734863
Sebastian Juan Bautista Fortuny Pozo,69,Pasadizo de Adán Boada 68 Puerta 0 ,Sevilla,Palencia,14568,92.238473,-36.175872
Jose Carlos Pujadas Juárez,48,Paseo de Roque Tomás 74,Navarra,Jaén,42476,-57.719376,-41.995745
Salud Muro Elorza,26,Calle Elisa Aramburu 245 Puerta 3 ,Pontevedra,Vizcaya,03763,174.209152,73.3698905
Lucila Jenny Herrera Pedraza,40,Cañada Ruth Ballester 339,Álava,Alicante,13140,122.864092,-26.742431
Eliana Casares Serra,23,C. de Prudencio Sans 797,Lugo,Valencia,26825,20.215549,23.952485
Albino Adelardo Chamorro Romeu,33,Alameda de Samuel Zorrilla 78 Puerta 7 ,Navarra,Ceuta,16729,78.653514,56.562136
Nayara Cámara Canet,59,Pasaje Carmelo Roura 72,Cádiz,Alicante,07163,4.098837,-67.9145725
Ainara Múñiz Aller,36,Camino de Amparo Mur 7 Apt. 00 ,Tarragona,Jaén,12085,-91.827832,-53.148136
Patricia Cortina Espada,28,Acceso de Serafina Jaume 8,Vizcaya,Córdoba,46323,73.738218,53.231892
Cosme Garzón Mena,39,Alameda de Abilio Soto 918,Álava,Murcia,36772,128.301296,87.6092785
Jacinta Sanmartín,18,Paseo de Cayetano Sanmartín 26 Apt. 12 ,Asturias,Baleares,42107,-102.109904,-23.3985205
Fidela Menéndez Ferreras,22,Avenida Ignacia Reguera 66,Albacete,Pontevedra,02879,-171.098735,-21.204687
Mercedes Puente Barranco,70,Callejón María Dolores Noriega 840,Burgos,Castellón,15511,7.957256,28.008326
Guadalupe Porras-Guillén,64,Via de Vicente Vives 688 Puerta 9 ,Badajoz,La Coruña,51926,-97.993770,60.110633
Evelia Arjona,77,Urbanización Máxima Alcántara 27 Piso 3 ,Alicante,Salamanca,44652,102.235044,6.1992045
Áurea Puga-Yáñez,59,Acceso Belen Feliu 5 Apt. 29 ,Segovia,Badajoz,44069,-110.337080,5.1925285
Graciano Duran Gárate,24,Camino de Eutropio Montero 2 Puerta 6 ,Las Palmas,Segovia,40339,-111.932478,41.6628125
Crescencia Portillo Palomino,51,Acceso Gracia Viña 53 Piso 8 ,Soria,Girona,42748,-83.003882,12.6428735
Paola Anaya Ballesteros,26,Paseo de Bernardo Carnero 77 Puerta 7 ,Córdoba,Ávila,41593,79.022329,2.5598665
Evita Elvira Gargallo Parra,33,Cuesta de Rosaura Roman 6 Puerta 2 ,Almería,Albacete,49679,-29.928919,33.615805
Esteban Jordá Miró,62,Ronda Benigna Cañete 59 Piso 7 ,Sevilla,Guipúzcoa,05476,-108.052745,47.0199235
Alcides Belmonte,59,Avenida de Paula Briones 91 Puerta 1 ,Albacete,León,08530,-68.363292,-11.7315675
Fortunato Calderón Suárez,63,Cuesta Duilio Daza 2,Córdoba,Huelva,39840,8.652831,-67.704761
Amalia Adadia Vallés,76,Avenida de Dorotea Huertas 47 Piso 5 ,Soria,Castellón,29021,3.662529,25.2887235
Benita Pazos Santana,60,Cuesta de Begoña Becerra 73,Córdoba,Ciudad,49880,-125.540998,38.3800855
Juan Luis Rey Marti,71,Alameda de Teo Sebastián 40 Apt. 88 ,Lleida,Cádiz,24271,17.703410,41.2954295
Wálter Pineda Avilés,50,Pasaje Asunción Lluch 87,Jaén,Guipúzcoa,42239,-72.144870,62.2260195
Basilio Alcalá Sevillano,73,Pasadizo Nazaret Santos 76 Puerta 4 ,Melilla,Huesca,45589,-144.264871,-71.574089
Eleuterio Sanabria,74,Paseo de Reinaldo Feijoo 845 Piso 5 ,Lleida,Jaén,13037,105.083215,19.268978
Ismael de Valdés,66,Cañada de Felicia Corbacho 2 Puerta 4 ,Álava,León,04648,110.710859,53.8108525
Néstor Fajardo Ferrándiz,72,Callejón Hilda Lago 480 Piso 3 ,Salamanca,Badajoz,43071,-122.634932,-18.574557
Ligia Vaquero Bustamante,34,Callejón de Celestina Buendía 81,Huelva,Asturias,05522,-17.420298,-72.4409435
Almudena Llorens Herranz,37,Via Mohamed Ballesteros 25 Apt. 24 ,Asturias,Cádiz,02496,-74.239746,14.443221
Pascual Sandoval-Aguiló,61,Pasaje de Claudio Colomer 237,León,Málaga,13566,-5.055402,39.1404645
Jaime Osuna,22,Calle de Nico Canet 243,Teruel,Melilla,19535,-138.774001,89.2539225
Evangelina Pi Esparza,55,Camino Haydée Roda 71,Navarra,Salamanca,28148,134.083331,64.940012
Lidia Ortiz Mulet,55,Vial de León Aguado 5,Huelva,Almería,51823,41.571671,63.905675
Judith Pintor Roca,57,C. de Calista Nuñez 97 Apt. 23 ,Castellón,Salamanca,38726,-157.272643,56.9221895
Julián Botella,47,C. de Ceferino Mendez 83 Puerta 8 ,Cádiz,Ciudad,27522,49.859326,71.007099
Rosa Valderrama Arroyo,67,Pasadizo David Carbonell 424,Pontevedra,Almería,48039,121.086968,-11.041599
Nicolás Benavente-Clavero,58,Cañada Gabino Rocha 25,Palencia,Barcelona,11308,81.108170,-25.775157
Mar Valero Vicente,74,Rambla Rogelio Salazar 97 Apt. 61 ,Albacete,Murcia,03947,-164.784020,-65.9785725
Geraldo Zapata Amores,27,Avenida Silvia Carrera 15,Valladolid,Baleares,28471,-144.022717,-7.4112605
Luna Noemí Soto Martinez,22,Plaza Natividad Marco 4 Puerta 5 ,Ciudad,Ávila,31637,-42.223957,73.521009
Eduardo Madrigal Campoy,72,Urbanización de Judith Oliver 99 Puerta 1 ,Albacete,Barcelona,48912,119.995643,71.0901545
Amílcar Duarte Alcolea,77,Rambla de Javi Solano 74 Piso 9 ,Valencia,Soria,37892,61.208011,43.8496005
Palmira Campos-Paz,50,Glorieta de Renata Araujo 9,Tarragona,Las Palmas,35696,12.431260,-4.4005615
María Ángeles Salinas Sarmiento,78,Calle de Nerea Becerra 95 Apt. 51 ,Salamanca,Soria,16683,-140.189898,21.2610965
Pía Bolaños Cardona,49,Cañada de Dalila Grau 736,Ceuta,Cuenca,37421,20.852172,-34.531139
Fidel Verdú,58,Glorieta David Chamorro 68,León,Burgos,29785,-173.587962,3.008298
Cecilio José Manuel Monreal Tello,24,Plaza de Chelo Río 2 Puerta 4 ,Castellón,Ciudad,36157,4.493053,-9.452521
Clotilde Niño Capdevila,36,Urbanización de Eva María Asensio 1 Apt. 10 ,Madrid,Barcelona,40668,143.267068,35.6482105
Martina Conde,79,Camino Isidro Escobar 61 Puerta 0 ,Castellón,Lugo,33135,-36.878734,82.7002435
Lisandro Matas Andrade,51,Cañada de Julia Farré 55 Puerta 1 ,Cuenca,Guadalajara,11749,-79.230911,22.5751555
Telmo Pepito Pelayo Puente,79,Vial de Maxi Cabeza 25 Piso 9 ,Santa Cruz de Tenerife,Lugo,38020,-18.357022,-12.863807
Plácido Mate Serna,65,Acceso de Gervasio Arellano 6,Zamora,La Coruña,18566,5.572993,-42.073029
Carmelo Vilanova Sacristán,71,Urbanización de Virginia Tolosa 20,Cantabria,León,35510,-1.208847,-34.747598
Pepita Miguela Requena Miguel,24,Pasadizo Maristela Roman 823,Las Palmas,Girona,44401,115.657542,35.087667
Santos Jaume Gallart,27,C. de Nidia Quevedo 85,Baleares,Granada,04027,-39.375521,-39.184974
Modesta Marisol Badía Sans,28,C. de Crescencia Morán 2,Santa Cruz de Tenerife,Albacete,40625,-162.836565,19.0755145
Maribel Nadal Barberá,54,Pasadizo Felix Martí 79,Las Palmas,Albacete,23672,10.086635,-62.486478
Marcelo Modesto Peña Puerta,70,Cuesta de Serafina Perelló 608,Valladolid,Málaga,02651,66.714442,62.767289
Zaida Quevedo,53,Acceso de Emma Cabañas 93,Granada,Valencia,27860,-60.345469,-36.7145885
Cristian Tur Bosch,19,Glorieta de Dionisio Guerra 945,Murcia,Granada,16404,-141.256220,-0.4902845
Josefina Lara Bilbao,73,Vial Paloma Soto 55,La Coruña,Álava,13493,-165.170738,-48.635178
Susana Matas,65,Pasaje de Serafina Calvet 45,Murcia,Cuenca,34166,35.191836,9.5023605
Ale Ribes Serra,39,Cuesta de Sara Catalá 60 Apt. 62 ,Toledo,Soria,02231,-115.042386,-79.445071
Jose Ignacio Lupe Soto Lopez,28,Paseo Aurora Sedano 6 Piso 9 ,Almería,Palencia,25337,74.789592,86.6344855
Glauco Soto Roman,59,Rambla Berto Segura 5,Lleida,Lleida,29339,62.720388,42.484623
Geraldo Rodriguez Alcalá,75,Via de Horacio Martorell 2 Piso 3 ,Granada,Cantabria,49189,124.853633,12.0205165
Lola González Urrutia,71,Vial Albina Jover 30,Madrid,Ávila,26776,18.121727,4.050744
Borja José Luis Tejera Mate,41,Paseo Patricia Macias 876,Almería,Jaén,37590,-28.311764,63.654905
Juan Antonio Sebastián Lobato Vega,54,Cuesta Luciana Trujillo 70,Álava,Girona,49815,-140.066656,-0.3575735
Pepe del Valera,60,Rambla María Manuela Caro 22,Cuenca,La Rioja,51674,63.107114,-0.948739
Osvaldo Blanes Pozuelo,46,Callejón de Felix Flores 26 Puerta 9 ,Málaga,Badajoz,07988,9.271148,43.266754
Ignacio Vila Cerdá,19,Avenida de Anita Ramírez 80,Alicante,Asturias,40948,-80.602407,-19.1765825
Ariadna Montero-Blanca,74,Vial de Susana Ureña 17,Jaén,Valladolid,24386,56.659093,-3.8985305
Renata Palma,37,Pasadizo Abraham Ferrán 47,Córdoba,Almería,47615,168.536274,-27.6882275
Purificación Fuertes Luís,76,Pasaje Teófila Lamas 9,Valencia,Guipúzcoa,27610,140.793815,-32.8182225
Julio de Amo,41,Camino José Mari Palacios 43 Puerta 5 ,Pontevedra,Girona,24841,78.286894,-54.8541755
Esmeralda Gomila,39,Callejón de Tatiana Prada 3 Puerta 7 ,Guadalajara,Tarragona,46325,84.549615,35.208894
Antonia Llabrés-Adadia,35,Cañada de Simón Ochoa 71 Apt. 57 ,Navarra,Huesca,34961,-99.407016,63.687690
Itziar Arenas Mercader,50,Via Ignacio Llano 85 Piso 1 ,Las Palmas,Badajoz,04624,-138.310328,-28.893790
Dionisia Alegria Gibert,30,Cañada Georgina Sevilla 754,Córdoba,Ceuta,07015,-23.797544,89.518682
Susana Expósito-Rivero,71,Cañada de Selena Puente 783,Alicante,Ávila,17029,97.788769,-27.258811
Salomé Luque Palau,72,Vial de Guadalupe Ordóñez 555 Piso 8 ,Teruel,Baleares,06243,-61.171100,-68.0623605
Feliciana Nadia Luís Corbacho,61,Cuesta de Rafaela Mateos 77,Vizcaya,Granada,39054,0.937666,78.9735375
Aristides Avilés Ariza,43,Ronda Florencia Pla 73,La Rioja,Huesca,42094,124.382101,8.214810
Mayte Susana Rubio Cabrera,58,Pasaje de José Puig 74,Valladolid,Castellón,39245,161.774048,73.997135
Marcia Contreras Albero,44,Pasaje Plinio Lerma 1 Piso 0 ,Zaragoza,Cantabria,24764,-172.197384,-71.5005565
Flavia Azahar Alcalá Carrión,62,Pasaje Jennifer Peñalver 22,Teruel,Ávila,48466,112.871641,-75.4768045
Selena Peinado Bas,29,Calle Marcela Canals 97 Piso 9 ,Lugo,Castellón,51976,62.051135,21.508993
Íñigo Rafa Santamaria Saez,29,Glorieta Jesusa Pujol 96 Piso 9 ,Palencia,Guadalajara,49454,-114.057612,-52.6325565
Sabina Leocadia Morera Bautista,64,Paseo de Hernando Menéndez 582 Puerta 7 ,Huelva,Valencia,51682,175.805491,-48.7193575
Victoriano Dominguez,21,C. de Graciana Torrent 39 Apt. 93 ,Segovia,Cuenca,35413,-171.857723,33.847576
Antonia Carbó Vallés,48,Acceso Isidoro Conde 61,Jaén,Zaragoza,10174,-78.858971,-42.0821645
Brunilda Valle Feijoo,24,Cuesta Lino Navarro 11,Lugo,Barcelona,15230,-159.836806,-29.237616
Amílcar Benjamín Quirós Santamaría,36,C. Abril Beltran 16 Puerta 2 ,Santa Cruz de Tenerife,Cuenca,45315,165.985959,1.977009
Eliana Checa Salas,47,Pasadizo Miguel Ángel Mate 7 Piso 8 ,Ourense,León,17245,148.934196,63.943673
Custodia Tomé-Barón,77,Pasadizo de Eliseo Pineda 190 Piso 4 ,Ceuta,León,23132,-177.686183,-40.148695
Macaria Carro-Barriga,56,Vial de Joaquina Salas 23,Zaragoza,Valencia,44227,143.230141,57.6358665
Calisto Amorós-Estevez,69,Ronda Gervasio Amat 10,Zamora,Sevilla,27299,-158.328350,76.1106895
Juan Luis Leon Dueñas,74,Glorieta de Bartolomé Valverde 75,Teruel,Ciudad,25973,16.488409,88.692164
Imelda Guijarro Tur,58,C. Jorge Valera 570,Zaragoza,Cáceres,12884,-81.130818,-3.423348
Charo Pujadas,47,Alameda de Elisabet Laguna 52 Puerta 5 ,Girona,Baleares,05438,36.061652,-17.444129
Eligio Múñiz Esteve,51,Urbanización de Rufina Montoya 80 Apt. 81 ,Cádiz,Zamora,15812,83.365895,87.0281575
Francisco Pablo-Hierro,26,Via Chus Moles 30,Girona,Ceuta,44533,15.348517,-19.350917
Ricardo Casas-Mariscal,26,Urbanización de Carmela Pelayo 66,Castellón,Guadalajara,36481,-88.851133,-16.5819125
Ambrosio Aznar Soler,29,Cuesta de Anselmo Céspedes 27,Navarra,Ourense,28162,28.632056,6.555170
Bibiana Paz Iglesia,40,Vial Fanny Ángel 4 Apt. 21 ,Burgos,Lugo,27374,61.954397,-27.702600
Osvaldo Álvaro Solana Gaya,18,Pasaje Pepita Cruz 77,Tarragona,Salamanca,14255,141.314443,62.1269605
Merche González Matas,34,Rambla Caridad Delgado 775,Burgos,Soria,47775,99.053773,16.6636725
Ruy Criado-Sanabria,33,Cuesta de Inés Montes 27 Piso 9 ,Murcia,Alicante,01838,162.806972,5.337497
Haydée Fiol Armengol,63,Cañada Débora Gallart 72 Puerta 4 ,Las Palmas,Baleares,48178,76.026190,-75.370970
Adora Coello Cárdenas,39,Via de Jesusa Buendía 439 Puerta 4 ,Asturias,Guadalajara,40409,-41.961154,-84.691984
Matías Aguilera Álvarez,63,Pasadizo de Fernanda Gutiérrez 77 Apt. 69 ,Álava,Teruel,41228,135.517823,76.897810
Coral Elvira Conesa Tomás,77,Camino Josefina Seguí 197 Apt. 93 ,Lleida,Cáceres,20471,6.123596,-24.897413
Noelia Mas Nevado,56,Cañada de Ángeles Jove 89 Apt. 14 ,Girona,Murcia,36812,11.062021,-15.016728
Ana Belén Uribe-Ferrán,68,Via de Toribio Bernal 8 Apt. 24 ,Soria,Badajoz,06446,-39.988727,1.827265
Pepito Valcárcel Ávila,47,Cuesta Delfina Prieto 98,Santa Cruz de Tenerife,Guadalajara,32287,-105.134372,-2.815896
Faustino Pujol Bautista,45,Callejón de Danilo Carreras 430 Piso 2 ,Cantabria,Cádiz,38997,-93.461365,62.1343075
Cayetano Perelló,65,Alameda Moreno Sobrino 187,Girona,Guadalajara,47640,-166.408378,-27.999623
Hipólito Fabregat Iriarte,38,Via de Marisela Sola 1 Puerta 8 ,Alicante,Valencia,43817,34.752607,76.644163
Primitiva Burgos,66,Camino Agapito Chaparro 67,Cuenca,Cáceres,03967,102.188244,64.7724985
Iván Arjona Llorente,59,Plaza Josué Prado 3 Piso 6 ,Zamora,Cuenca,51316,-38.126922,67.582655
Daniela Almazán Sarmiento,33,Paseo de Bárbara Puga 118 Apt. 33 ,Lleida,Jaén,14260,-105.457646,56.612027
Ariel Roig Almansa,47,Calle de Nazaret Gabaldón 66 Puerta 9 ,Barcelona,Murcia,46526,-170.726956,-69.4455035
Lara Aller Guardiola,53,Vial Ileana Rincón 22,Zaragoza,Cantabria,52033,-24.499612,-69.6438605
Eli Palau Heredia,65,Acceso de Carmen Larrea 938 Piso 2 ,Teruel,Badajoz,28910,-144.203142,32.7004995
Julia Pellicer Paz,71,Pasaje Eliseo Ledesma 643,Sevilla,Jaén,14903,-165.764052,88.0506535
Feliciana Verdugo Crespi,34,Ronda María Carmen Manuel 48,Pontevedra,Guadalajara,20612,78.872244,82.1996005
Rosalva Cerdá,21,Plaza de Gisela Fabra 47 Apt. 50 ,Álava,Lleida,48675,-70.508817,-84.1179855
Fabiana Barrena Mayoral,33,Vial de Eligio Daza 49 Piso 6 ,La Coruña,Cádiz,36156,135.888386,6.394608
Purificación Lamas Guijarro,46,Cañada de Matilde Donoso 89 Puerta 7 ,Palencia,Guipúzcoa,19840,144.191114,-18.248349
Manuela Rodríguez-Fuente,40,Calle de Clara Corbacho 842 Piso 1 ,Santa Cruz de Tenerife,Granada,27816,23.890542,-47.405484
Maricruz Arribas,72,Plaza María Belén Perelló 5 Piso 8 ,Lleida,Segovia,04230,67.008739,34.9560835
Lorenza Pereira Prieto,68,Cañada Víctor Giner 46,Zaragoza,Salamanca,04099,-2.612238,-85.2357585
Eligio Cabeza Ángel,61,Callejón Constanza Abril 37,La Coruña,Ourense,45414,123.065522,-8.9653345
Nerea Grau Gilabert,44,Calle de Mario Huertas 49 Puerta 6 ,Cáceres,Cuenca,06942,-158.004983,83.517401
Maricela Colomer Pozo,27,Plaza Dalila Romero 37,Málaga,Burgos,51146,-174.462792,-54.245531
Emma Español Arroyo,72,Via de Tatiana Rodriguez 50,Soria,Cádiz,29714,-26.933393,29.6153525
Jose Carlos Jover Verdugo,54,Avenida Ceferino Garzón 690 Puerta 7 ,Palencia,Madrid,31777,-34.898070,-65.157013
Mauricio Mariscal Mur,79,Pasadizo de Marciano Revilla 662,Alicante,Jaén,17446,-67.964149,31.559719
Rosalva Jordán Verdugo,76,Vial Odalys Pazos 5,Lleida,Cáceres,22090,166.547791,12.832797
Micaela Tapia Aguiló,36,Via Jose Francisco Mariño 460,Lugo,Cuenca,09548,-37.817616,-63.3195175
Natanael Guardia Pablo,67,Cuesta de Quirino Montenegro 37,Cuenca,Pontevedra,48518,-87.970975,34.976542
Dorotea Segarra,47,Pasadizo Estela Ribas 7,Cádiz,Granada,30622,-100.962945,83.488785
Severiano Caro Blazquez,36,Glorieta Sofía Gonzalo 804,Soria,Soria,32284,43.067186,16.2407485
Amada Nevado Bermejo,24,Ronda de Rodrigo Vidal 9 Piso 8 ,Baleares,Santa Cruz de Tenerife,12070,-5.718527,82.996440
Amílcar Ferrández Mercader,41,Pasadizo Pelayo Puga 68,Las Palmas,Málaga,14440,68.078016,-83.6439835
Irma Bonet Bastida,59,Avenida de Dominga Torralba 96,Asturias,La Rioja,34852,-47.935841,-79.6646455
Hortensia Valdés Díez,32,C. Adela Palomino 267 Piso 9 ,Cantabria,Ciudad,01328,140.079136,6.2215165
Florina Herrera Cortés,61,Ronda de Máxima Terrón 77 Apt. 72 ,León,Baleares,18806,-9.381047,85.072920
Rosalva Matilde Gaya Niño,56,Urbanización Isabela Gisbert 76,Valladolid,La Coruña,13881,42.195088,19.559353
María Cristina del Conde,63,Cuesta de Isidoro Cortina 56,La Coruña,Madrid,04305,8.287977,-73.9522505
Marino Carro Calvo,26,Via Ariel Ricart 11 Puerta 3 ,Baleares,Melilla,24339,-155.160807,63.640356
Zaira Marqués Aroca,49,Callejón de Jose Angel Santos 59,Teruel,Girona,42627,-145.886978,20.8395295
Omar Andres-Coronado,75,Urbanización de Bernardita Marcos 7 Piso 2 ,La Coruña,Ceuta,14153,-12.394279,83.285356
Mariana Olmedo-Mendizábal,72,Camino de Almudena Grande 19 Apt. 42 ,Guipúzcoa,Zamora,33066,-121.153541,-75.548178
María Teresa de Costa,60,Pasadizo Angélica Gras 3,Melilla,Zaragoza,26755,-9.563367,-49.5409875
Perlita Caparrós Águila,78,Via de Ciríaco Cobo 227,La Rioja,Córdoba,36240,70.018160,74.1363255
Piedad Castañeda Mateos,61,Urbanización Édgar Pelayo 73,Segovia,Asturias,36178,-127.803772,-77.690168
Pancho Piñol Sanmartín,78,Rambla Paco Canales 97 Piso 8 ,Toledo,Granada,32868,82.784965,43.9675895
Fanny Somoza,59,Rambla de Marina Álamo 44 Apt. 62 ,La Coruña,Tarragona,11288,158.193812,64.971642
Onofre Corominas Galiano,24,Pasadizo Calisto Chaves 71,Ceuta,Castellón,33922,-2.200926,76.722211
Noé Acevedo Carreño,66,Urbanización de Juan Bautista Merino 97,Asturias,Málaga,43409,174.479373,-81.0865635
Quique Zacarías Montalbán Sanabria,45,C. de Amando Canet 13,Ávila,Teruel,11377,68.476921,-60.330166
Atilio Prats-Losada,48,Ronda de Esteban Sastre 25 Apt. 31 ,Castellón,Córdoba,46294,157.585418,-1.3614335
Amarilis Mulet Bustos,71,Paseo Íñigo Quintana 68,Ourense,Murcia,48713,131.667617,-45.679346
Juan Manuel Torrecilla Lerma,51,Callejón Victorino Gomila 50,Las Palmas,Castellón,07643,77.228814,-64.6119935
Aurora Samanta Palmer Millán,63,Pasadizo Mateo Rocha 797,Navarra,Teruel,09098,9.402044,32.5866765
Prudencia Anita Jurado Bilbao,22,C. de Artemio Hoyos 48 Piso 6 ,Valladolid,Tarragona,38910,144.215001,48.9836715
Juanito Olmo Manzano,41,Vial Esperanza Rius 209 Piso 4 ,Ciudad,Cádiz,03388,3.667056,84.386961
Fidela de Pedro,75,Paseo Prudencio Briones 56 Puerta 1 ,Ourense,Murcia,27735,-116.329188,-21.307257
Amada Neira,29,Cañada Manuel Río 3,Jaén,Ceuta,44796,125.552499,30.277422
Hilda Cecilia Ballesteros Baena,36,Acceso Rosenda Vidal 2 Apt. 33 ,Ourense,Barcelona,06049,-160.441504,-77.389034
Julie Gimeno Fajardo,55,Vial Luz Huerta 452 Apt. 41 ,Cantabria,Las Palmas,38881,-98.577201,-42.5611245
Flavia Esteban González,35,Callejón Encarnacion Higueras 52 Apt. 51 ,Málaga,Almería,35222,-173.662236,52.4962695
Merche Checa Ródenas,35,Callejón de Lorena Miranda 87,Girona,Alicante,04896,81.373059,59.7505465
Xiomara Modesta Bernal Samper,44,Paseo Esperanza Ballesteros 560,Lleida,Huesca,23794,69.549410,79.3326155
Amelia Ferrero Noguera,51,Ronda Lidia Pujol 98 Puerta 6 ,Guipúzcoa,León,30959,140.124068,47.9628595
Belen Pedraza Nogués,74,Callejón de Yolanda Somoza 61 Apt. 46 ,Melilla,Badajoz,15594,-168.051412,-9.851842
Cayetana Garriga,37,Pasadizo de Belen Robles 335 Apt. 45 ,Ávila,Córdoba,27097,107.458020,-20.9316215
Ofelia Torrent Llamas,53,Vial de Abel Quintero 6,Las Palmas,Asturias,08094,-118.689425,-22.3787795
Dan Taboada Orozco,74,Cañada Ciriaco Bosch 40 Puerta 7 ,Madrid,Salamanca,24670,-43.795949,-20.2347335
Leandro Plana Álvarez,44,Via de Aristides Fuente 7 Piso 1 ,Tarragona,Baleares,08834,136.233474,36.335927
Heliodoro Cózar Pujadas,22,C. de José Font 15 Puerta 8 ,Santa Cruz de Tenerife,Tarragona,21200,-123.435743,-74.2454975
Cleto Ferrando Vicens,29,Callejón Noé Escamilla 5 Piso 3 ,Málaga,Melilla,15085,-51.487751,-79.888939
Nazaret Molina Gilabert,54,Via de Gil Giralt 295,Murcia,Segovia,31748,111.721568,-8.157038
Carmelita Sevilla,52,Avenida de Pilar Lopez 70,Baleares,Baleares,41408,60.339181,-38.298492
Ramiro Javi Pino Ortiz,39,Glorieta Elodia Hierro 4,Huelva,Valladolid,38713,30.597293,50.1087585
Dani Díaz Peláez,27,Pasaje Cirino Jiménez 6 Puerta 5 ,Castellón,Toledo,48582,148.483864,10.3649085
Asunción Elena Viana Lastra,26,Paseo Chuy Jódar 90,Alicante,Huesca,45133,13.674936,45.795366
Teodoro Requena Herranz,57,Cuesta Edmundo Chamorro 44,Vizcaya,Zaragoza,37014,-61.361009,77.7843545
Carmelo Peña Ordóñez,37,Pasaje de Selena Barros 41,Segovia,Vizcaya,33301,-113.233295,52.7581425
Nilo Alcalde Romero,59,Avenida Lope Dávila 55,Palencia,Badajoz,13369,37.407032,78.387391
Ambrosio Acosta Figuerola,79,Rambla de Inés Maldonado 26,La Rioja,Baleares,07726,64.426457,58.4642525
Zoraida Vicente Quesada,57,Paseo Jordi Amo 7 Piso 9 ,Toledo,Asturias,19453,-40.453252,87.408641
Emiliana Robledo,45,Plaza Cristian Zaragoza 784 Apt. 03 ,Ourense,Teruel,01819,125.595167,-13.3278205
Marc Carballo Ochoa,67,Ronda de Noa Garcés 97 Puerta 9 ,Córdoba,Álava,24794,-47.067293,-76.7486545
Jonatan Fabricio Valentín Martí,22,Pasaje Leopoldo Oliva 349,Lleida,Albacete,26083,21.299188,59.972384
Alba Sandoval,22,Glorieta de Socorro Porcel 36 Piso 5 ,Ciudad,Granada,28215,77.411554,-61.0745885
Graciana Roldán,39,Pasadizo Irene Español 59,Santa Cruz de Tenerife,Guipúzcoa,27578,-111.660189,-74.5271485
Miguel Ángel Bermejo-Torres,38,Pasaje Inocencio Escribano 6 Piso 8 ,Lleida,Ourense,24479,-103.235854,82.4495565
Guiomar Gomis Llabrés,38,C. Elías Pozuelo 39 Piso 3 ,Málaga,Badajoz,22521,-156.695265,44.3218725
Melchor Arturo Olmedo Palau,44,Ronda Lina Solana 879 Puerta 5 ,Valencia,Zamora,42358,59.981597,-45.505140
Calista Cortina Vidal,41,Cañada de Natalia Carbó 70,Albacete,Girona,39665,28.089408,35.8274025
Ainoa Rosado Girón,24,Rambla de Noemí Hernández 6,Lleida,León,42712,80.289111,-23.674494
Maristela Mínguez Ortega,33,Cuesta Isidoro Rueda 98 Puerta 6 ,Guadalajara,Navarra,34154,95.097063,47.707903
María Del Carmen Gimenez,21,Camino Rafa Murcia 11,Cáceres,Segovia,41981,-60.967092,-48.214800
Román Oliveras Cortina,76,Paseo de Herberto Aznar 50 Piso 1 ,La Coruña,Ciudad,31919,-106.380834,-0.0383665
Inmaculada Nevado Ordóñez,25,Cañada Carmina Alcántara 88,Salamanca,Girona,01778,92.609865,-36.489832
Angélica Benavente Medina,44,Acceso de Teobaldo Soria 46,Cáceres,Zamora,38601,-129.013139,51.2688375
Felix Garmendia Vicens,20,C. Celestina Montes 90 Apt. 46 ,Navarra,Málaga,31447,28.866234,44.021105
Luz Ruperta Noguera Requena,80,Camino Felicidad Folch 46,La Coruña,Ceuta,17721,99.289611,69.959233
Óscar Carro-Ochoa,24,Camino Jose Manuel Martí 413 Piso 2 ,La Coruña,Ávila,04129,70.372360,58.5779935
Gregorio León Huerta Valenciano,69,Pasaje Valeria Almeida 14,Granada,Valladolid,04338,-101.974641,-26.5363405
Julia Baena Izaguirre,46,Pasadizo de Isidoro Amat 2,Zaragoza,Valencia,47433,160.400175,-56.0527015
Borja Aparicio Morales,30,Ronda de Custodia Diaz 967,Álava,Salamanca,11880,-17.482456,-41.319412
Macario Pons Aranda,34,Calle Viviana Noriega 83,Murcia,Burgos,37710,28.960722,-74.412773
Constanza Valcárcel Haro,27,C. Luisa Alarcón 1 Apt. 33 ,Ceuta,Cantabria,16026,-78.131715,-34.898016
Marisa Barranco Sandoval,35,Avenida Otilia Guzmán 403,Cuenca,Badajoz,26584,55.107482,-14.3082705
Tatiana Gárate Fuertes,53,Acceso Eusebio Vázquez 91,Guadalajara,Asturias,40584,-160.128780,-32.508066
Norberto Gordillo Ricart,52,Plaza de Olivia Antón 50 Puerta 1 ,Pontevedra,Lleida,49636,107.534640,-32.5004485
Mirta Francisco Vidal,35,Alameda Damián Chamorro 38,Baleares,Huelva,04779,4.076291,-85.8874655
Eric Boix,25,Pasaje de Dan Carreras 52 Puerta 7 ,Huelva,Pontevedra,51987,-121.452626,-82.5241115
Lisandro Barberá Falcón,25,Plaza Maristela Torrents 440 Puerta 2 ,Teruel,Alicante,08411,16.654980,-61.1027845
Guiomar Bustamante,68,Glorieta Javiera Morata 77 Puerta 0 ,Almería,Barcelona,04970,-61.759764,61.160897
Liliana Alvarez Perez,20,Cañada de Angélica Carballo 5,Asturias,Barcelona,51894,146.944847,9.5206455
Aarón Quique Dueñas Riera,34,Avenida Paulino Mateo 53 Piso 0 ,Ceuta,Lleida,40449,153.663366,73.720091
Álvaro del Andreu,47,Callejón Modesta Campoy 91 Piso 3 ,Huelva,León,36626,24.852968,55.399912
Alicia del Clemente,38,Plaza Galo Castrillo 55,Albacete,Granada,24831,35.094561,22.0426355
Luis Castellanos Somoza,77,Urbanización de Maxi Pallarès 82,Girona,Melilla,21842,-43.897329,-29.5011205
Amado Balaguer-Giralt,50,Acceso de Nicolás Elías 649,Huelva,Barcelona,38468,-165.126318,-10.901554
Amando Múñiz-Nuñez,68,Cuesta Teo Carrasco 84 Piso 9 ,Murcia,Baleares,43440,-142.735829,3.949021
Pancho Priego Benavente,52,Pasadizo de Faustino Acosta 755 Puerta 1 ,Málaga,Asturias,28565,-141.912420,-63.1030615
Albert Julio Granados Cámara,73,Plaza Ernesto Carreras 2 Puerta 7 ,Badajoz,Palencia,10257,-142.406954,40.3025775
Luciana Piña,53,Via Gerardo Maldonado 7 Puerta 1 ,Madrid,Zamora,31648,111.614524,35.232062
Ligia Vicens Aguirre,24,Acceso de Gilberto Arroyo 5 Piso 2 ,Ourense,La Coruña,36075,-107.871431,7.887372
Fabiana Jove Verdú,66,Glorieta de Andrés Felipe Alcaraz 8,Baleares,Albacete,38715,-22.240128,75.7551785
Sigfrido Moraleda-Miró,32,Callejón de Leandro Franco 55,Ourense,Alicante,25129,-124.866431,-43.305344
Pepita Calderón Leon,36,Alameda de Fabiola Lluch 66,Zamora,Melilla,16612,-11.124780,89.9585035
Rafael Espejo Cáceres,80,Cañada de Matías Amigó 58,Valencia,Palencia,10235,166.631566,42.199578
Juan Francisco de Montenegro,64,Pasadizo de Dorita Enríquez 78 Piso 2 ,Toledo,Palencia,24098,-134.426000,-72.8455305
Bautista Meléndez,64,Via de Pánfilo Carbó 47 Piso 6 ,Valladolid,Álava,36651,-149.284329,-0.0406445
Maximiano Ferrero Quintana,37,Avenida Heliodoro Piña 84,Baleares,Zamora,09785,5.393011,49.810120
Lope Aliaga Gámez,50,Camino de Raúl Naranjo 715 Piso 3 ,Lugo,Albacete,44488,-42.146416,-57.1951495
Manu Fausto Toro Alvarado,48,Paseo Eliseo Pina 3,Córdoba,Girona,37788,162.571193,28.7445805
Fortunata Piñol,41,Plaza de Mirta Goñi 97,Segovia,Lugo,08038,169.817400,-30.9007735
Paco Girona Mesa,73,Avenida Belen Tomás 672 Puerta 4 ,Almería,Burgos,49941,131.133422,8.963376
Fortunato Uribe Mir,72,Paseo de Rico Santamaría 2 Apt. 60 ,Soria,Las Palmas,08976,124.521424,-79.8023385
Tristán Vasco Codina Goicoechea,29,Vial de Ángeles Salmerón 80 Puerta 1 ,Cádiz,Baleares,02367,-109.476704,26.017801
Valerio Cal Sedano,39,Alameda de Germán Marti 27,Salamanca,Pontevedra,03120,120.827155,7.887385
Sandalio Rocamora Ortega,37,Rambla de Martín Adán 199,Ourense,Granada,41349,-26.413434,-54.941386
Angelino Arias Mendizábal,33,Urbanización Consuelo Peiró 12 Puerta 1 ,Palencia,Ceuta,19790,-55.723448,-51.5895255
Almudena Peral Heras,71,Acceso Loida Hoyos 91,Asturias,Cuenca,39640,-60.193356,20.519969
Bautista González-Royo,41,Paseo Ruben Villalba 32,Girona,Barcelona,36872,-55.085976,-37.6896145
Julio César Íñigo Baquero Valencia,35,Cañada de Sarita Trillo 7 Piso 5 ,Jaén,Cádiz,50727,34.525851,42.212372
Pascuala Alcalá Gonzalez,69,Avenida Bernarda Juan 94 Apt. 46 ,Lugo,Lugo,38575,169.250366,11.5630075
Leocadio Cisneros-Anguita,80,Vial Samanta Pazos 484,Jaén,Ciudad,02278,117.729674,4.9832985
Susanita Roma Orozco,32,Acceso Reyes Prat 15,Huesca,Murcia,07491,92.210315,23.8733135
Claudio Romeu,26,Pasadizo de Felicia Iñiguez 38 Puerta 2 ,La Coruña,Barcelona,50780,25.968091,5.302036
Mario Pancho Rosa Pedraza,67,Camino Ciriaco Garrido 63 Apt. 27 ,Ourense,Cantabria,24545,165.834221,8.949495
José Valle,62,Acceso de Fernando Amat 369,Teruel,Cádiz,38213,-16.549896,-77.051035
Ulises Iglesia-Agustín,30,Ronda África Figuerola 43,León,Soria,14927,-78.910885,-60.475628
Ámbar Verdejo,21,Avenida de Olga Borja 5,Segovia,Sevilla,45175,129.932663,47.296820
Nacio Barrio Barrio,45,Pasadizo Agapito Cortina 29,Vizcaya,Granada,32174,133.106591,-34.5319435
Amalia Manzanares Millán,66,Callejón Carlota Soto 68,Guipúzcoa,Albacete,11748,-34.504058,21.3037405
Faustino del Seco,64,C. Clara Peiró 43 Piso 0 ,Las Palmas,Córdoba,01780,168.496650,32.9984525
Curro Ríos-Ramirez,30,Ronda Ciriaco Salgado 246 Piso 1 ,Las Palmas,Girona,01240,136.081798,65.752072
Alonso Barceló,19,Alameda de Felix Segovia 392,Guipúzcoa,Ciudad,42438,137.302182,-19.208025
Matilde Campo Zurita,36,Ronda Isidro Rebollo 40,La Coruña,Valladolid,49601,149.995836,-58.7850575
Carlota Elías Villanueva,22,Glorieta Leandro Burgos 612 Apt. 55 ,Melilla,Ceuta,24691,-51.541738,-60.451368
Cruz Sáez Cases,32,Camino de Esperanza Pombo 383 Piso 1 ,Teruel,Soria,36311,2.489973,-78.5536945
Dulce Uribe Pons,51,Glorieta de María Teresa Borrás 5,Huesca,Cádiz,02083,19.080331,24.8510225
Roberto Ariza Roura,60,C. Carmelo Jurado 95 Apt. 81 ,Valencia,Soria,03351,-10.198047,-59.6930145
Luciana Salvador Macias,21,Ronda de José Ángel Bru 8 Puerta 1 ,Álava,La Coruña,48015,177.620601,88.538237
Lisandro Sanabria-Barrios,29,C. de Amalia Olmedo 35 Apt. 45 ,Álava,Zamora,21330,132.621886,13.366220
Edelmira Camino Agustín,68,Plaza Rosendo Puig 5,Jaén,Lleida,32537,-161.215656,25.360186
Adelaida Almansa Girona,28,Camino Eladio Chaparro 4 Apt. 64 ,Santa Cruz de Tenerife,Cádiz,49603,10.117833,3.1264865
Isidro Ríos Bru,76,Alameda de Mohamed Rey 99,Valladolid,Barcelona,30373,24.288032,-29.0018465
Ildefonso Gutierrez Campos,64,Pasaje de África Sánchez 50 Puerta 5 ,Ceuta,La Coruña,06187,153.994470,1.3318345
Leyre Granados,68,Rambla de Rosa Somoza 34 Puerta 5 ,Asturias,Castellón,29820,88.460203,3.5569195
Reina Diego Agustín,71,Cuesta Julio César Solé 92 Puerta 2 ,Barcelona,Teruel,15829,-131.247159,-76.995430
Roberta Serrano,80,Rambla Gervasio Noriega 82 Puerta 9 ,Ourense,León,26037,9.057002,89.7783595
Kike Calderón Ortiz,33,Pasaje Toño Mendez 10,Álava,Álava,39219,9.897299,32.4387415
Estefanía Fábregas,65,Calle de Venceslás Guillén 812 Puerta 2 ,Toledo,Cantabria,37642,75.628278,75.4952475
Ramona Zabala Agudo,63,Pasaje Zaida Barrera 27,Badajoz,Badajoz,28148,-60.703943,81.3555655
Eloísa Maldonado Crespo,51,Cañada de Eliana Capdevila 329,Huesca,Huelva,18017,156.425415,10.7778485
Guiomar Puig Bayón,49,Vial de Tiburcio Hernando 806,Ourense,Murcia,33123,28.828768,0.7183785
Beatriz Piña Blazquez,68,Camino Tamara Lobo 52,Navarra,Ourense,45508,85.326883,27.8783725
Sebastian Donato Alvarado Pareja,71,Cañada de Galo Juárez 6 Apt. 47 ,Burgos,Guadalajara,25080,109.837898,-64.575304
Evita Lillo Roman,33,Acceso Ruperto Pavón 369 Piso 1 ,Girona,Ourense,44094,160.949789,83.792114
Juana del Cardona,71,Pasaje de Valentín Perea 67 Puerta 8 ,Córdoba,Salamanca,16577,-43.540519,-73.072675
Carmen Gracia,72,Ronda de Melchor Gordillo 82,Vizcaya,Teruel,28381,-9.006713,70.196507
Clímaco Reina Boada,46,Cuesta de Rosalina Cabrera 286,Cádiz,Zaragoza,40365,91.178265,-42.818742
Jose Francisco Losa Almeida,60,Urbanización de Flor Montserrat 722,Navarra,Cádiz,04368,172.974745,43.7416415
Urbano Torralba Contreras,73,Urbanización Carlito Echevarría 98,Albacete,Castellón,30510,145.214508,-73.4769735
Clímaco Ureña Aroca,27,Cañada Javier Gelabert 5,Granada,Ourense,32292,123.208850,87.807031
Julieta del Catalá,45,Pasadizo de Amílcar Vaquero 84 Apt. 50 ,Soria,Vizcaya,05777,76.827794,39.3149445
Amelia Alberola,25,C. de Aura Cruz 96,Salamanca,Valencia,19823,159.016194,-60.757696
Lope de Font,43,Cuesta Guillermo Corbacho 76 Apt. 47 ,Cádiz,Córdoba,18452,98.156096,33.225940
Augusto de Andrade,22,Cañada de Mariana Zamorano 454 Piso 2 ,Navarra,Tarragona,31187,5.671104,-58.035774
Gabriela Rios Feliu,69,Cañada de Dorotea Rovira 465,Valencia,Madrid,20841,52.392938,22.9979175
Carmelita Eva Caro Téllez,27,Alameda de Francisco Jose Guillen 50,La Coruña,Cádiz,37349,-86.461188,7.8371195
Imelda Concepción Novoa Mercader,55,Pasaje Reyna Ortiz 5,Zaragoza,Córdoba,13783,-53.541919,13.3027255
Luciano Aznar Araujo,25,Calle de Leocadio Torrecilla 45,Girona,Navarra,19737,-160.790447,-37.607249
Eleuterio Ponce Cortes,77,Plaza Jacinta Uribe 76,Teruel,Murcia,35339,77.000851,-13.162953
Graciela Artigas Murcia,80,Pasadizo Fabio Perera 5 Apt. 07 ,Vizcaya,Jaén,12429,-119.430153,20.9772765
Isidora Martín Miró,76,Pasadizo Marita Espinosa 7 Piso 8 ,Córdoba,Ávila,40823,2.490578,-71.668209
Felix del Catalá,53,Calle Jose Miguel Clavero 9 Apt. 41 ,Lugo,Guipúzcoa,44966,-12.239793,49.745029
Isaac Marcos,45,Alameda de Victoria Manuel 13,Salamanca,Zaragoza,23401,-55.601743,-20.527520
Herminio Garcés Pujadas,33,Pasaje de Aureliano Benítez 63,Lugo,Tarragona,43924,-44.833702,81.5603415
Leopoldo Anguita Quesada,76,Glorieta de Atilio Olmo 758 Piso 3 ,Albacete,Álava,24311,-48.071694,-71.8472115
Eusebia Gomez Sanabria,18,C. Jose Carlos Gibert 32,Murcia,León,15602,-12.343825,-15.364125
Sosimo Juan Castillo Ferrán,75,Cañada de Aurelia Nebot 8,Huesca,Cuenca,14005,155.575827,-67.5017905
Mariana Palomo Zaragoza,72,Ronda de Anselmo Leal 790,Murcia,Huesca,23312,74.082918,-42.9414325
Eugenia Barreda Escudero,18,Avenida de Alexandra España 18,Pontevedra,Navarra,31689,-14.938669,-4.2374455
Carmina Cabo Taboada,35,Plaza de María Pilar Torrecilla 99 Puerta 4 ,Huesca,Guipúzcoa,49868,89.712320,39.3417105
Silvia Bernad Ayllón,77,Plaza de Purificación Acedo 3 Puerta 5 ,Alicante,Girona,15155,103.390546,10.662041
Santiago Robledo Arcos,20,Cañada de Eusebio Esparza 45 Puerta 2 ,Badajoz,Cádiz,49111,-130.389293,71.523522
Jacinto Yuste Solana,32,Vial Albano Andrade 5 Apt. 50 ,Segovia,Lugo,23528,-75.704830,53.8484585
Rosa María Cano Giralt,45,Via Chucho Ocaña 89 Puerta 2 ,Santa Cruz de Tenerife,Salamanca,43256,54.481409,26.3242565
Cintia Tamarit Montaña,76,Pasadizo de Serafina Manuel 7,La Rioja,Cuenca,47942,77.090422,-86.006905
Nayara Mancebo,46,Pasadizo Carmelita Valentín 34,Las Palmas,Guipúzcoa,05617,-53.757195,-64.100449
Marina Calvo Ramos,60,Pasadizo de Marina Marqués 432 Apt. 62 ,Granada,Badajoz,23347,63.177433,-20.9730295
Gastón del Anguita,42,Callejón Tere Losada 56,Ourense,Ourense,42685,2.182150,-29.002968
Ani Sanmiguel Cabrero,60,Avenida Diego Ochoa 41 Piso 9 ,Guipúzcoa,Almería,23067,-165.883546,25.427710
Paula Camino Pablo,79,Urbanización Mayte Cantón 37 Apt. 57 ,Lugo,Cuenca,33300,-12.275621,46.719523
Nacio Gual Lillo,26,C. Fabio Navas 6 Apt. 77 ,Santa Cruz de Tenerife,Guadalajara,17227,-137.033529,-80.2094995
Macario del Montes,28,Pasadizo de Manu Arregui 23 Puerta 2 ,Navarra,Cantabria,11600,-148.099099,-74.1211855
Luz Dalila Diaz Tomás,26,Callejón Lorenza Álvarez 6,Barcelona,Las Palmas,32313,-129.780800,25.155178
Pacífica Galván León,46,Avenida Carolina Hervia 65 Piso 8 ,Badajoz,Valencia,05943,58.474786,4.493978
Lázaro Olivares Becerra,70,Vial Martina Frutos 67 Puerta 0 ,Melilla,Pontevedra,45775,71.338717,71.919775
Zaira Delgado-Múgica,72,Urbanización de Juan Manuel Correa 48,Córdoba,Granada,19008,93.814412,-34.9815785
Berto Garcés Seco,39,Callejón de Vicenta Cuadrado 33,Cádiz,Guipúzcoa,37960,97.510299,10.152106
Gracia Azeneth Menendez Martorell,73,Glorieta de Mirta Reguera 72,Cuenca,Huelva,14536,-99.416197,8.4829275
Pastor Ripoll-Crespo,60,Glorieta Rafa Ferreras 751,Castellón,Guipúzcoa,49131,24.384589,11.4132395
Lorenza Reyes Goicoechea,76,Cañada Bonifacio España 4 Piso 6 ,Ceuta,Palencia,27958,-23.081643,-69.869300
Quirino Zurita-Cardona,64,Ronda Gracia Abad 5,Burgos,Granada,50394,138.511943,-15.742170
Nilda Arrieta Barrio,26,Via Isa Valencia 42 Apt. 18 ,Huelva,Badajoz,32643,-64.809685,-1.1045285
Antonia Moles Aller,74,Paseo de Ruy Calderon 62,Cádiz,Guadalajara,41560,-172.065707,-56.4868775
Ema Cánovas,31,Vial de Reinaldo Cano 8,La Rioja,Navarra,01354,108.093587,-66.3761335
Ernesto Carmona Piñol,19,Avenida de Leocadio González 17 Puerta 2 ,Melilla,Castellón,34367,88.736029,-58.985532
Albano Recio Arévalo,66,Pasadizo de Celestino Benet 73,La Coruña,Granada,10831,-43.107906,-68.492721
Lara Llopis-Morera,31,Plaza de Cruz Balaguer 569 Piso 8 ,Córdoba,Albacete,37563,57.238000,-73.578956
Andrea Alcántara-Pla,79,Vial Hilda Oliveras 842 Apt. 16 ,Burgos,Toledo,16675,26.734526,15.3628845
Zaida Roca Palacios,51,Ronda María Pilar España 744,Burgos,Baleares,09153,153.132059,-20.2340795
José Mari Cuevas-Serra,79,Acceso de Rogelio Berenguer 20 Puerta 6 ,Sevilla,Girona,03613,-73.709893,-23.4263215
Teófila Enríquez Camino,30,Urbanización de Guiomar Fuster 92 Puerta 1 ,Tarragona,Almería,21291,54.810026,-63.389159
León Cabezas Azorin,24,Cañada de Gracia Garrido 36,Valencia,Ávila,15687,-83.617780,21.5867965
Maximiliano Fuster,34,Paseo de Poncio Roldán 6 Apt. 96 ,Zamora,Murcia,11394,-47.034469,-8.2575845
Nico Prado Ropero,47,Callejón de Anna Quiroga 72,Segovia,Albacete,28526,-107.997355,69.7338205
Nilo Baños-Ferrero,28,Cuesta Marisela Maza 72 Piso 6 ,Málaga,Granada,38582,122.667422,27.7907405
Perla Galindo Álamo,77,Paseo Kike Barberá 69,Madrid,Cuenca,06766,-134.008672,13.4968085
Saturnino Cabezas Madrigal,23,Via de Angélica Segura 96,Palencia,Palencia,12419,-79.177054,76.761461
Renato Checa Bou,72,Paseo de Concepción Fabregat 1 Piso 4 ,Almería,Ceuta,38154,-109.673354,-29.0643895
Delfina Llorente Azcona,63,Pasaje Alba Valls 7 Piso 1 ,Almería,Lleida,45908,-60.305849,-85.9543125
Vito del Tejedor,47,Callejón Albano Guillén 6 Piso 0 ,Burgos,Salamanca,17655,-43.121740,11.181818
Teresa Cabo Company,69,Paseo de Amaya Arrieta 18 Puerta 7 ,Teruel,Toledo,33527,127.164558,62.5803485
Eusebio Buendía Pujol,35,Vial de Geraldo Tomas 69 Piso 7 ,Ciudad,Ávila,20012,-79.025210,84.049510
Nydia Navarro Ureña,21,Plaza Tecla Palomares 468,Albacete,Toledo,28606,160.721926,-45.460271
Malena Camps Ureña,42,Pasaje de Chucho Cerdá 99 Puerta 8 ,Palencia,La Rioja,47990,-72.010270,-72.3469675
Eric Cobo Prieto,29,C. de Ricardo Capdevila 49 Puerta 4 ,Toledo,Huesca,49351,-55.206775,65.0072195
Jonatan Puga Rico,77,C. de Curro Cervantes 38,Almería,Huelva,09714,-142.323572,40.775582
Cintia de Quintanilla,24,Calle de Trini Almagro 16,Guadalajara,Cantabria,32581,178.145202,84.2011405
Chuy de Montserrat,21,Vial Leandro Sanchez 81 Apt. 13 ,Ávila,Madrid,07018,74.502096,-77.255030
Adolfo Guitart Font,30,Urbanización de Teobaldo Rincón 96 Puerta 9 ,La Coruña,Ourense,26422,-48.833697,-56.902480
Maxi Nadal-Reyes,66,Calle Loreto Querol 73 Piso 9 ,Cáceres,Burgos,19559,149.808198,-64.2588255
María Dolores Galiano Maestre,63,Camino de Gil Vera 262 Puerta 7 ,Granada,Cuenca,08131,-130.516290,83.6792615
Sandalio Manuel Mayoral,74,C. de Leyre Recio 382 Puerta 1 ,Tarragona,Alicante,21230,-5.343510,56.0185145
Charo Téllez-Cal,74,Via Fernanda Peñalver 851,Valladolid,La Coruña,07675,51.323771,-17.816718
Jose Angel Guerra Parejo,59,C. Diana Mínguez 81,Álava,Jaén,13074,68.633274,-40.6401775
Dionisio Solsona,44,Glorieta de Nilo Egea 41 Puerta 9 ,Melilla,Zaragoza,33514,-129.010172,-4.8402685
Agapito Teo Díaz Tejera,63,Urbanización de Belén Verdugo 181,Ourense,Huelva,17738,6.875908,16.1903405
Nélida Rebeca Llorens Amores,40,Acceso de Aarón Castañeda 46,Asturias,Valencia,49094,132.606516,-36.4453065
Odalys Revilla Acero,46,Plaza Marcelino Blanch 43,Toledo,Valladolid,40488,-151.080676,-55.551517
Rosario Escobar Tejada,38,Alameda de Erasmo Pozo 37,Álava,Ceuta,40632,-112.084500,80.004204
Albert Vidal Salom,22,Ronda de Jafet Quiroga 45 Puerta 4 ,Murcia,Cantabria,25731,-148.170501,-85.953474
Cayetano Machado,76,Callejón de Jorge Sierra 76 Puerta 9 ,Las Palmas,Murcia,31173,62.788477,-21.0797865
Narcisa Berrocal Martin,42,Glorieta de Jose Francisco Nadal 2,Segovia,Baleares,05374,161.921521,19.8943585
Salvador Ropero Ortega,76,Paseo Matilde Guardiola 617 Puerta 5 ,Soria,Madrid,07105,-102.780939,74.3068215
Edgardo Vergara-Peiró,73,Acceso de Teodoro Solé 87 Apt. 24 ,Zamora,Almería,38394,-8.325462,28.4341015
Moisés Juárez Silva,19,Alameda de Visitación Seguí 14 Puerta 2 ,Melilla,Pontevedra,20484,-144.309455,-18.1241185
Germán Díaz,41,Via Leandra Lastra 53,Burgos,Zaragoza,30942,147.161687,-12.086407
Ricardo Arce Márquez,49,Rambla María Carmen Tapia 96 Puerta 9 ,Ávila,Alicante,41620,85.124738,33.186614
Irma Álvaro Carrasco,41,Pasadizo Ámbar Ricart 39,Valladolid,Asturias,27985,-112.787879,1.7437895
Paulino Fito Seco Leiva,54,Vial de Leonor Saavedra 32 Apt. 91 ,Salamanca,Guadalajara,35346,72.761233,5.6891195
Jennifer Moliner-Valencia,73,Vial de Graciana Osorio 224,León,Álava,51560,168.042462,20.5734255
Severiano Doménech Cortés,63,C. de Benigna Abril 41 Apt. 65 ,Zaragoza,Valencia,22653,179.788593,0.058191
Enrique Oliva Pérez,39,Paseo Severino Vigil 14,Asturias,Albacete,10348,-77.503416,47.909616
Ximena Valls Mena,28,Rambla Jacinto Roldan 47,Pontevedra,Las Palmas,05281,-74.005966,-10.5923755
Eligio Chico Gallart,27,Alameda de Martín Blanca 55 Puerta 0 ,Zaragoza,Teruel,35534,96.349993,9.636407
Jessica Pedraza-Morante,54,C. Cosme Benet 18,Castellón,Ceuta,17793,-156.452248,-43.9662655
Remedios Nidia Jurado Alcalá,33,Urbanización María Belén Nicolau 503,Segovia,Toledo,41770,35.196068,-76.716909
Modesta Jove Vilaplana,31,Urbanización de Roldán Cifuentes 81 Apt. 74 ,Cáceres,Sevilla,27101,-22.369988,23.652695
Iris Mariño Arnau,64,Pasadizo de Inocencio Pereira 18 Apt. 19 ,La Rioja,Alicante,21712,-161.560819,-63.806548
Eva Manuel-Ávila,80,Cuesta Paco Cruz 50 Puerta 1 ,Palencia,Valencia,28815,152.304709,64.198138
Virgilio Checa Alberola,39,Alameda de Rico Alcántara 51 Puerta 9 ,Almería,Valladolid,31403,-103.983119,-63.119328
Juan Aguirre,66,Ronda de Iris Vicens 6,Madrid,Alicante,50641,-95.436453,-79.9906675
Aristides Saldaña Jódar,50,Cañada Guadalupe Pomares 95 Puerta 5 ,Almería,Zaragoza,01525,58.000463,-7.147702
Manuelita Jara,61,Alameda de Chus Fuente 79 Apt. 33 ,Lleida,León,24648,19.557589,58.730633
Alfonso de Talavera,35,Pasaje Bibiana Yuste 33,Guipúzcoa,Murcia,20761,176.932575,26.6632805
Isidoro Bernad Benavides,35,Ronda de Isaac Quiroga 93,Málaga,Barcelona,07525,-88.317102,-36.4137955
Heraclio Calleja Casares,57,Plaza Encarnacion Villalobos 6 Apt. 84 ,Zaragoza,Cantabria,19442,46.914223,14.9422185
Rosalía Dionisia Mariscal Asenjo,49,Pasadizo Jesús Amor 8,Guadalajara,Ourense,17624,150.888445,2.9414855
Chelo Marin-Baquero,28,Paseo de Candela Cano 385,Pontevedra,Valladolid,13003,59.114102,-33.665773
Leoncio Rosell Lobato,47,Urbanización de Jimena Pedrero 6 Piso 3 ,Pontevedra,León,48779,-58.691578,64.0034155
Martin Guillén-Valera,77,Plaza de Olegario Puente 94,Guadalajara,Guipúzcoa,09615,77.813438,-79.014248
Abel María Rios Guijarro,25,Pasadizo de Isa Flor 39 Puerta 8 ,Asturias,Ávila,22937,110.962463,-5.0280495
Adora Ignacia Sanchez Calatayud,19,Paseo Julieta Múñiz 31,Ceuta,Toledo,33263,-83.792187,-62.073223
Rico Portillo-Arnal,38,Via Dulce Giménez 99 Puerta 6 ,Murcia,Madrid,36578,92.369071,57.663248
Nicodemo Burgos Sobrino,38,Rambla Claudio Medina 80,Valencia,Lleida,31606,38.081952,63.896787
Fidela Lasa Herrero,22,Acceso de Ainoa Figueras 49,Sevilla,Las Palmas,30930,39.353280,59.366719
Felipa Ponce-Ibáñez,76,Pasadizo Florina Cuadrado 606,León,Albacete,08020,-43.881107,-81.1911095
Eugenio García Sacristán,31,Ronda Aurelia Palomo 7 Puerta 8 ,Castellón,La Rioja,21698,14.078694,14.7018655
María Belén Pi Lluch,69,Cuesta de Alonso Tudela 10,Málaga,Cáceres,01755,-78.548409,-71.2723735
Benigna Arregui Vera,68,Plaza Ángel Manuel 21 Apt. 35 ,Álava,Córdoba,16144,126.783216,-72.9948545
Édgar Rosario Jaume Zaragoza,70,Alameda de Paula Romeu 72 Apt. 67 ,Ávila,Ávila,25287,60.228657,-77.123006
Aurelio Mayo Villanueva,65,Pasadizo de Fidel Arco 11,Ciudad,Zaragoza,14749,-176.089566,-3.805097
Fabio Jose Manuel Mateo Solsona,62,Ronda Quirino Borrás 97,Burgos,Castellón,29002,-37.370228,-84.6329425
Vasco Miguel Segarra,60,Ronda de María Ortiz 93 Apt. 90 ,Girona,Baleares,48519,-90.630440,-40.1473135
Fidel Bayo-Iborra,47,Cañada de José Antonio Calzada 87 Puerta 3 ,Baleares,Ávila,10485,-122.691287,29.7682195
Ramona Atienza-Anaya,50,Acceso Patricia Bautista 20,Murcia,Zamora,44293,51.936142,75.258230
Emiliano Joel Navarrete Cañizares,70,Calle de Calixto Pavón 11 Puerta 8 ,Córdoba,Salamanca,14793,30.667772,33.6488365
Olga Pavón Gilabert,24,Callejón de Estela Rubio 8,Santa Cruz de Tenerife,Sevilla,36617,-69.292115,-70.763753
Eladio Madrigal,32,Pasaje Manuelita González 57 Puerta 7 ,Santa Cruz de Tenerife,Huesca,10397,-110.507412,-6.1996255
Teresa Baquero Arnal,75,Calle Arturo Asensio 4 Apt. 07 ,Burgos,León,05990,-150.882197,-19.8488295
Camilo Cesar Ordóñez Domingo,26,Cañada de Rosario Galván 26 Piso 9 ,Ciudad,Baleares,04474,37.039577,23.7943735
Lara Cabañas Lopez,78,Via de Duilio Valbuena 32 Apt. 03 ,Ceuta,Guipúzcoa,39049,106.016945,-58.081952
Raimundo Arévalo Núñez,18,Glorieta Chucho Maldonado 29,Cuenca,Cuenca,43294,168.381731,-54.380070
María Del Carmen Cárdenas Giralt,39,Acceso de Anita Aller 59,Baleares,Jaén,02160,-55.772048,-45.3976625
Clemente Pascual,75,Acceso Rodrigo Lastra 55 Piso 9 ,Baleares,Cáceres,11902,-108.493962,77.6889665
Leandro Marcos Querol,61,Urbanización de Flora Folch 50 Piso 4 ,Huelva,Tarragona,19619,8.097608,28.716245
Bernardino Grau Pomares,77,Cuesta Cesar Briones 52 Piso 7 ,Melilla,Segovia,12498,133.848366,-3.286373
Cecilio Estevez Cuevas,40,Rambla Marcos Gascón 3,Valladolid,Málaga,24570,90.766466,11.768569
Paulina Blanca Simó Anglada,20,Cuesta de Ricarda Pedraza 13 Piso 6 ,Zamora,Cáceres,19767,102.990381,85.089704
Dionisio Pina Rodriguez,68,Calle Lino Cabeza 520 Apt. 31 ,Cuenca,Huesca,32029,-92.185726,-72.7315505
Plácido Tudela Verdú,28,Camino de Toni Dominguez 82,Baleares,Ávila,41595,-75.412711,7.234199
Jenaro Cabañas Torralba,60,Pasaje Tito Bayo 79 Puerta 9 ,Cuenca,Toledo,40920,-17.530924,-24.596733
María Pilar Mendizábal Ballesteros,37,Ronda Benita Rodríguez 57,Asturias,Guadalajara,40328,34.655840,-31.191602
Leire Perea Vives,18,Ronda de Estela Badía 78 Puerta 5 ,Cuenca,Ávila,06161,-160.655839,-3.2859105
Felisa Calvo-Guzman,31,Paseo de Inés Puente 953,Guipúzcoa,Albacete,24792,5.992590,-59.0378885
Emiliano Múñiz Peralta,60,Acceso Wilfredo Aroca 22,Jaén,Alicante,37728,-95.554176,14.979740
Román de Campos,22,Calle de Teófila Río 3,Ceuta,Segovia,13753,68.771525,42.6378595
José Antonio Gargallo Navas,50,Alameda Feliciana Ávila 17 Apt. 92 ,Cáceres,La Rioja,19805,0.445832,-11.8994415
Melisa Olmo-Rivera,67,C. Etelvina Chico 3,Segovia,Vizcaya,14947,-133.958550,-53.133090
Hector Monreal Fajardo,28,C. de Maribel Esparza 886,Guadalajara,León,18718,-86.031995,39.037417
Sigfrido Guillén Huguet,50,Camino Remigio Tena 859 Apt. 07 ,Palencia,Badajoz,41964,22.151717,65.3184255
Chus Nogueira Vall,18,Urbanización de Calixta Revilla 6,Cuenca,Melilla,18793,-61.391186,63.1195275
Felicidad Cornejo Gil,61,Cañada de Nando Ruano 809 Piso 7 ,Teruel,Almería,36680,-67.862896,10.0890275
María Ángeles Trinidad Herrera Nogueira,62,Acceso de Maura Colom 67 Apt. 32 ,Almería,Cáceres,11438,80.262982,22.482011
Plinio Agullo Millán,29,Avenida María Belén Martín 50 Piso 4 ,Huelva,Almería,49377,162.159039,-83.0217675
Hernán Feijoo Ferrero,20,Vial de Marcelino Murillo 68,Huelva,Tarragona,36644,-6.637576,78.236340
Juan Luis Guardia Vila,72,Acceso Pili Ripoll 58,Teruel,Ourense,39362,13.328142,-82.111528
Natalio Iriarte Vara,35,Avenida de Geraldo Carreras 24 Puerta 9 ,Pontevedra,Navarra,13699,165.664077,-79.5703385
Primitiva Prieto Ochoa,80,Paseo de Jose Manuel Pujadas 22 Piso 9 ,Alicante,Huesca,45548,26.564682,-32.6737525
Rosalva Carrera,33,Pasaje de Gastón Córdoba 2 Piso 6 ,Ciudad,Murcia,07040,-80.900924,-50.0336225
Ibán Montesinos Hervia,52,Callejón de Flor Sanmartín 3,Pontevedra,Teruel,16916,-18.894964,-11.195312
Ramón Busquets Salom,37,Glorieta de Porfirio Fuertes 80,Ceuta,Málaga,09007,65.453930,-17.5952925
Samanta Benavides Castells,67,Paseo de Amalia Pareja 942 Puerta 3 ,Cádiz,La Coruña,50411,-102.378133,-80.807113
Geraldo Sedano Jurado,32,Callejón de Ximena Acuña 25,La Coruña,Cantabria,21513,35.875896,87.883136
Arcelia Abellán,40,Cuesta Mateo Piñeiro 63,Cantabria,Cáceres,13525,-149.168598,-42.277074
Salud Artigas Montaña,69,Ronda Bibiana Aliaga 57 Puerta 6 ,Córdoba,Salamanca,03414,11.043484,-38.3386775
Rebeca Roldán,19,Plaza Sarita Pou 44 Apt. 80 ,Almería,Vizcaya,03887,-178.637627,-61.2906875
Victoriano Borrego Ropero,26,Camino de Modesto Adadia 31,Guadalajara,Castellón,17866,129.750866,45.209255
Soledad Llopis Escribano,54,Alameda de Jordán Cabo 520 Apt. 63 ,Valladolid,Cáceres,47501,36.309576,45.135704
Ambrosio Hernán Perea Patiño,80,Urbanización de Florina Bejarano 71 Puerta 2 ,Cuenca,Girona,46749,61.993278,48.057762
Chita Bernad Artigas,65,Urbanización de Fabián Pozo 5 Piso 9 ,Zaragoza,León,02852,-19.755280,-42.5440495
Yéssica Yolanda Vila Canals,79,Cuesta Alejandro Morata 827 Puerta 8 ,Guadalajara,Girona,10767,-45.149983,72.2418875
Valeria Alba Mir,21,Calle de Sancho Teruel 74 Puerta 5 ,Lleida,Burgos,07466,-171.602007,40.0355895
Marianela Carrión Arnaiz,54,Rambla Adalberto Barros 428 Puerta 2 ,Zaragoza,Almería,31378,-177.236950,-28.469647
Amor Galindo Barrera,57,Paseo Juan Luis Montero 3,Zaragoza,Zamora,30638,-97.368272,20.0830065
Ulises Lastra,70,Cuesta Eufemia Águila 85,Ceuta,Huelva,28886,-168.418095,67.325216
Gastón Salvador Bautista,62,Vial de José María Bayón 378,Albacete,Madrid,51149,-170.854761,-58.363346
Sandalio Jurado Bravo,31,Pasadizo de Domitila Santiago 278 Piso 6 ,Navarra,Zamora,44263,-31.572309,-72.0711535
Angélica Bayón Gonzalez,22,C. Cipriano Osuna 795,Lugo,Valladolid,09575,-143.944472,85.7038095
Heriberto Borja,24,Avenida de Florencia Cardona 94,Lugo,Segovia,10987,-163.823701,30.966768
Eugenio Ochoa Casanovas,29,Plaza de Victor Rivera 46 Piso 4 ,Vizcaya,Jaén,39574,-127.252816,-20.0693225
Albert Rafael Alba Martin,52,Vial Guadalupe Iniesta 8,Salamanca,Álava,47093,46.396836,-19.820828
Leticia Gimeno Marí,19,C. de Azeneth Piña 5 Piso 7 ,La Coruña,Valladolid,30354,63.747574,-12.404247
Fabiana del Sanmartín,73,Callejón Zacarías Portero 908 Apt. 96 ,Palencia,Zamora,34463,96.567159,-22.261216
Modesta Manso Pombo,63,Urbanización de Emilia Medina 58 Puerta 8 ,Melilla,Segovia,48435,173.328542,13.936826
Begoña Cañete Mesa,47,Plaza Héctor Tirado 4 Apt. 82 ,Ourense,Cáceres,43258,-72.386842,53.715105
Desiderio Torrent Peñalver,34,Cuesta de Abilio Pons 5 Puerta 7 ,Palencia,Barcelona,50913,107.829856,-39.092421
Juanito Peinado Gutiérrez,77,Ronda de Cornelio Solera 4,Badajoz,Navarra,04364,-86.467627,43.7158575
Fabián Olmo Campillo,49,Via Cristóbal Miralles 41 Piso 9 ,Palencia,Pontevedra,47609,54.515660,8.452106
Bernardino Tejero Muñoz,64,Camino de Bonifacio Pablo 41,Álava,Valencia,29448,101.245550,32.6006825
Virginia Belmonte Sáez,30,Plaza Agapito Guzmán 27 Puerta 7 ,Sevilla,Álava,35618,-149.811468,-39.9467495
Marc Aguilera Gil,58,Plaza de Severino Palomino 51 Piso 3 ,Burgos,Zamora,45206,-55.785626,-44.3144345
Francisco Jose Seco-Ruano,71,Calle de Andrea Uría 48,Huesca,Palencia,37423,-9.036698,73.730969
Candelas Pizarro Laguna,61,Acceso de Florentino Jimenez 6 Puerta 8 ,León,Zamora,07580,37.058026,72.853753
Álvaro Ballester Casal,26,Avenida de Raúl Tirado 25,La Coruña,Ciudad,14911,-122.293790,43.943083
Teresa Oller Querol,24,C. de Fito Clavero 996 Piso 9 ,Santa Cruz de Tenerife,Málaga,08967,-81.496680,-53.0490575
Maristela Morell-Armengol,80,Paseo de Eutropio Carvajal 94,Cáceres,Baleares,44377,37.562712,64.4884325
Severiano Barragán Falcón,61,Calle de Teodosio Perea 4 Piso 5 ,La Rioja,Las Palmas,12509,-139.963871,-68.8502695
Chucho Gracia-Jerez,32,Avenida Esperanza Ródenas 90 Puerta 2 ,Valladolid,Ciudad,05726,-45.085647,83.4053475
Eric Ripoll Fortuny,54,Plaza de Porfirio Tejedor 331 Apt. 96 ,Zaragoza,Tarragona,29997,39.506461,12.019780
Judith Iniesta Prats,58,Vial Amarilis Gordillo 68 Apt. 06 ,Ourense,Asturias,01936,-18.506182,15.465551
Daniela Leal Márquez,31,Ronda Víctor Goicoechea 10,Castellón,Huesca,11856,90.345684,-56.873683
Gerónimo Ródenas-Almansa,69,Camino de Ulises Tolosa 64 Puerta 5 ,Toledo,Zaragoza,51984,-11.539975,-26.7182235
Abilio Diego,62,C. Azahar Agullo 282 Piso 8 ,Cuenca,Sevilla,36098,94.311427,65.363688
Nélida Ángel Roig,30,Callejón de Luis Cañete 50,Badajoz,Vizcaya,12706,85.254528,-58.283673
Toni Tormo Segovia,74,Cañada de Chelo Lucas 3 Apt. 46 ,Asturias,Baleares,46586,139.177212,-21.859857
Carla Batalla,29,Vial de Lupe Rivera 749,Pontevedra,Álava,43201,-47.107092,-81.7386995
Sofía Bernal Alvarado,51,Rambla Amelia Madrigal 197 Apt. 26 ,Albacete,Albacete,05733,176.718124,-84.388968
Severiano Capdevila Mármol,43,C. Curro Alonso 1 Piso 3 ,Teruel,Teruel,20279,124.210374,70.024354
Florinda Sáez Vall,69,Urbanización de Anunciación Escribano 95,Alicante,Cuenca,07908,-176.468318,-66.3535945
Fausto Estrada Higueras,34,Pasaje de Jacobo Colomer 702,Santa Cruz de Tenerife,Toledo,38099,-129.577128,66.9684475
Pastor del Camps,22,Camino de Gloria Expósito 40 Puerta 7 ,Melilla,Guipúzcoa,22896,41.956551,-27.4547035
Nydia Rosalinda Arcos Mínguez,25,Avenida de Demetrio Fabra 765,Segovia,Málaga,22189,-148.516619,-3.602153
Máxima Expósito Gomis,52,Avenida Fidela Guerrero 19,Jaén,Palencia,32971,29.903478,37.5706875
Ruben Oliveras Pozo,38,Alameda Odalis Enríquez 72 Apt. 85 ,Ceuta,Melilla,38224,-100.545279,89.937992
Román del Tamarit,54,Camino de Silvio Salazar 38 Puerta 5 ,Zaragoza,Segovia,51627,-94.282390,19.2331865
Lucas Saavedra Alcalá,37,Glorieta de Azucena Dominguez 9,Cáceres,Lleida,45350,-98.352684,-79.359700
Hilario Tejada Aragón,43,Ronda Fabiana Fábregas 4,Jaén,Albacete,14307,-123.386134,-32.130609
Alfonso de Zabaleta,65,Cañada Augusto Mur 3,Badajoz,Segovia,24848,37.530156,29.730110
América Trini Jover Arteaga,66,Vial Sarita Nogués 70,Valladolid,Huelva,01720,148.813763,69.6562535
Juan Francisco Terrón Talavera,74,Avenida de Eliseo Cortes 326 Piso 1 ,Murcia,Huelva,42412,132.962781,78.7384565
Bruno del Aguirre,74,Vial Merche Arnal 5,Zaragoza,Teruel,23663,-146.537814,47.9106855
José de Mendez,55,Paseo de Rita Luís 47,Soria,Vizcaya,34071,173.996657,-28.8127685
Eulalia Herranz Luz,24,C. de Modesto Salinas 56 Apt. 10 ,Vizcaya,Segovia,34956,172.641598,-57.812466
Isaac Caro-Elías,44,Via Clotilde Vera 51,Cáceres,Albacete,41127,-149.650332,-29.875639
Marcia Díaz Mesa,26,Paseo Cornelio Ibáñez 90,Lleida,Jaén,41324,87.885540,5.457381
Fernando Soler Soto,64,C. de Xavier Carbó 26 Apt. 26 ,Cuenca,Huesca,20590,-169.646068,-43.243260
Rosenda Marcos Antón,35,Via de Graciana Gomis 67 Puerta 3 ,Castellón,La Coruña,28757,-62.696721,6.669753
Anabel Godoy,68,Vial Dani Cobo 323,La Rioja,Salamanca,50755,91.675459,41.4322635
Dionisio Ruben Valera Peñas,39,Urbanización de Amando Ibarra 355 Piso 8 ,Castellón,Córdoba,03580,89.133407,21.0214945
Gabriel Matas Hernandez,65,Urbanización de Rolando Vazquez 10 Piso 3 ,Córdoba,Alicante,44351,-165.233233,82.811292
Olegario Salgado Manuel,74,Pasadizo de Américo Serna 591,Pontevedra,Madrid,46731,-63.528364,-4.170426
Cebrián Roldán Tovar,77,Pasaje de Rafaela Palomino 95,Navarra,Cáceres,07197,125.921473,-30.9973745
Sonia Pagès Alvarez,28,Camino Galo Vazquez 80,Soria,Jaén,15097,-12.720240,70.600026
Roxana Viñas Barrios,67,Acceso de Noa Aguado 7,Castellón,Ourense,21161,69.632292,12.656371
Samuel Agustín,40,Alameda de Vito Abellán 33 Puerta 8 ,Málaga,Cuenca,50509,80.653444,85.742315
Concepción Carmela Agudo Rosselló,77,Cañada de Flor Mármol 78,La Coruña,Ourense,13864,81.982049,14.747096
Leonel de Aller,19,Avenida de Felipa Barros 2 Apt. 01 ,Ciudad,Cádiz,15528,107.845410,89.9412805
Estrella Salgado Roselló,46,C. Alejo Fonseca 57,Guipúzcoa,Soria,16852,154.519945,84.9109275
Salomé Antúnez Guardia,23,C. de Salomón Simó 46 Apt. 57 ,La Rioja,Sevilla,52085,-130.087664,-78.283623
Julián del Velázquez,56,Acceso de Ariel Batlle 10 Apt. 28 ,Zamora,Albacete,29361,71.443013,-30.937256
Ezequiel Gallego Nevado,44,Ronda Leonardo Checa 56 Puerta 2 ,Girona,Salamanca,24615,-133.305512,-9.873055
Leandro Sanmartín Carmona,43,Acceso de Eduardo Arnaiz 7 Puerta 3 ,Murcia,Alicante,05449,129.505091,-9.2729705
Adelardo Palma-Atienza,75,Acceso Matilde Sainz 846,Teruel,Burgos,03806,-144.440084,8.6615905
Geraldo Iker Falcón Fernandez,44,Plaza de Ceferino Peñas 35,Granada,Navarra,05099,-172.270418,14.459235
Flavia Peláez Echeverría,73,Ronda Flavia Beltran 2,Sevilla,Alicante,48102,-19.585494,-63.222047
Otilia Dominguez-Ballesteros,58,Avenida de Ángela Piñol 89,Segovia,Santa Cruz de Tenerife,49592,8.251826,-49.8623145
Alex Pino Tena,65,Acceso Arcelia Saez 2,Badajoz,Burgos,24146,105.140859,-84.5754965
Ángeles Tomas-Elorza,46,Acceso Aurelia Aguirre 46,Valencia,Ourense,23688,9.630840,9.3167315
José Luis Gimeno Velasco,47,Paseo Constanza Montserrat 99 Apt. 64 ,Segovia,Álava,17213,-85.972232,52.4315515
Félix Peiró Velázquez,63,C. de Claudia Albero 26 Puerta 9 ,Las Palmas,Ceuta,50925,-168.002281,-66.5992725
Itziar Zamora Caparrós,54,Calle Octavio Montalbán 97 Puerta 4 ,Vizcaya,Asturias,48137,98.618692,-6.0269845
Ovidio Tormo Almansa,53,Vial de Leonardo Piña 77 Piso 9 ,Soria,Burgos,50618,18.924850,44.2767235
María Cristina Rosell Gonzalo,41,Paseo Pánfilo Nuñez 34,Las Palmas,Granada,27643,35.660369,-81.6695655
Soledad de Torrent,41,Glorieta de Pacífica Barberá 98 Apt. 53 ,Huelva,Teruel,41812,129.369436,-23.2554655
Candelas Novoa-Gargallo,76,Calle Máxima Palomares 2 Apt. 37 ,Granada,Cádiz,16975,92.125707,-29.765730
Miguela Macias Nuñez,59,Acceso de Hilario Nogués 530,Valencia,Cantabria,22696,-116.049195,-85.2064435
Eloy de Feijoo,29,Calle Nacio Manrique 120,Santa Cruz de Tenerife,Badajoz,14538,120.906784,39.503993
Macaria Haro Rivera,71,Pasaje de Benito Lillo 68,Asturias,Granada,44066,-8.031214,17.264919
Cristian Téllez Cuenca,46,Paseo Ambrosio Escolano 281 Piso 5 ,Murcia,Ceuta,32555,145.065793,-80.945402
Joel Cerdán Antón,51,Cañada Eligia Herrera 35 Apt. 55 ,Burgos,La Rioja,34934,83.890605,-45.466585
Fabio Sans Perera,20,Pasaje Calixta Carrasco 671,Lugo,Alicante,24734,-154.686269,10.656810
Juan José Eleuterio Agudo Gibert,22,Pasaje Ignacia Sobrino 798,Cádiz,Burgos,03112,119.463880,-79.910998
Feliciano Serra Barrera,31,Cañada de Angelina Villar 187,Palencia,Alicante,03920,32.359755,-55.6741995
María Teresa Lobo Ramos,37,Calle de Gabriel Hervia 40 Piso 5 ,Huesca,Guadalajara,25799,134.242724,80.302050
Gerónimo Menéndez Riba,36,Acceso de Albina Sanmartín 69 Puerta 4 ,Alicante,Toledo,27974,166.198833,-87.797102
Cecilia Rodriguez Esteve,73,Cañada Juan Carlos Ramón 98,Álava,Toledo,25497,135.103734,-58.242925
Marino Vélez Molins,24,Plaza de Jose Carlos Conesa 43 Puerta 6 ,Ciudad,Valencia,10906,133.629842,-87.6387905
Amílcar Menéndez Adadia,48,Calle de Dominga Nicolás 79 Piso 3 ,La Coruña,Castellón,10932,61.933692,14.1456905
José de Romeu,58,Acceso de Carina Sáenz 82 Piso 5 ,Vizcaya,Tarragona,33487,29.158896,-62.056135
Ainara Ramos,36,Pasaje Cebrián Garzón 26,Valencia,La Coruña,41508,22.685806,17.460199
Gonzalo Agudo Palomo,19,Acceso de Roque Haro 31,Baleares,Girona,02581,23.073180,59.185223
Daniel de Codina,20,Glorieta Víctor Pablo 99 Apt. 28 ,Barcelona,Málaga,32969,-75.783881,-22.6992785
Eric de Porcel,58,Cañada de Balduino Corominas 27 Puerta 1 ,Burgos,Tarragona,40116,-16.125586,-63.1213175
Salomón Manzanares,59,Urbanización Domitila Llorens 3 Apt. 13 ,Guipúzcoa,Jaén,04907,-54.328977,3.753469
Yolanda Quiroga Guitart,32,C. de Ester Saez 95,Sevilla,Córdoba,23719,-155.730539,-52.353990
Abril Barrena,64,Urbanización de Marina Bonet 66 Apt. 82 ,Zaragoza,Valencia,48906,66.207694,-37.8940175
Marta Pastor Figuerola,43,Acceso de Consuela Sales 27 Piso 2 ,Cáceres,Álava,47310,34.435411,16.8169835
Juan Manuel Sanjuan Parejo,41,Pasaje Flavia Narváez 47 Puerta 2 ,Salamanca,Granada,14144,-90.684311,58.5432935
Sebastián Luis Miguel Pina Lumbreras,40,Rambla Esteban Bárcena 11 Apt. 70 ,Murcia,Alicante,36202,-133.569832,-79.1870275
Marisa Aranda,38,Glorieta Cecilia Ugarte 866,Madrid,Badajoz,23214,-120.172456,-27.0635445
Jordán Aroca-Cervera,65,Via de Irene Frutos 657,Valencia,Málaga,39514,75.807665,47.5785145
Otilia Anaya Talavera,18,Callejón Brunilda Iriarte 80 Piso 0 ,Lleida,Soria,17199,154.296508,-57.354528
Lázaro Loreto Torrens Ramos,43,Callejón Noa Marín 426 Piso 7 ,Burgos,Melilla,41366,106.259348,29.9341785
Leopoldo Plana Giralt,74,Pasadizo Claudia Llabrés 8 Apt. 81 ,Asturias,Cádiz,25920,139.273819,34.427219
José María Vito Barco Angulo,39,Rambla Fátima Cisneros 807 Piso 6 ,Almería,Melilla,49873,-96.950570,-50.861308
Quique Marin Campoy,71,Pasaje de Duilio Solana 579 Puerta 6 ,León,Teruel,23402,76.336652,75.313015
Silvia Priego Ropero,66,Calle Valerio Manzano 93,Málaga,Albacete,50232,50.376556,-33.6573315
Jessica Matas,69,Calle Claudio Gibert 70 Apt. 81 ,Lleida,Madrid,18324,39.381020,-66.288300
Olivia Pereira Barceló,64,Pasaje de Aarón Blanes 86,Sevilla,Sevilla,30106,143.758438,57.9641875
Narcisa Hurtado Hidalgo,22,Rambla Rafa Sales 42 Puerta 0 ,Alicante,Palencia,34028,47.015841,36.1606555
Pía Izaguirre Casanova,71,Plaza Yolanda Laguna 14 Puerta 7 ,Castellón,Santa Cruz de Tenerife,30401,-106.210779,-25.9904295
Pelayo Ros Solé,68,Alameda Ani Ríos 555 Apt. 43 ,Palencia,Tarragona,36839,-139.981369,-37.648758
Aura Ródenas Vergara,39,Pasadizo Isabela Coloma 845 Puerta 6 ,Ceuta,Valladolid,01876,108.282153,84.553854
Pelayo Godoy,54,Callejón Joaquina Camacho 50,Santa Cruz de Tenerife,Baleares,31726,83.434954,72.335312
Ligia Carrasco Zurita,30,Via de Amelia Guerra 14 Apt. 88 ,Lleida,Castellón,23990,-76.217039,-28.4995015
Demetrio de Sedano,29,Glorieta Tiburcio Roda 5 Apt. 56 ,Ávila,Alicante,29006,-22.770680,13.812666
Duilio Vázquez-Quirós,77,C. de Marcelino Montes 95 Puerta 0 ,Cuenca,Ávila,41441,95.670643,-89.115433
Felix Gallardo Fernández,38,Calle Carmina Marín 45,Almería,León,09229,-153.363183,71.240761
Poncio del Vicente,54,C. Mariano Estrada 4,Guadalajara,Murcia,14083,165.352592,-83.9051675
Cesar Pinedo Ferrer,43,Plaza de Florentina Hernandez 70 Puerta 0 ,La Rioja,Cádiz,16553,-13.067500,70.6910335
Bonifacio Cantero Cortés,79,Calle de Gabriela Escudero 4 Puerta 5 ,Córdoba,Ciudad,02803,46.103097,73.6427505
Jose Carlos de Mateo,43,Via Anacleto Juliá 9,La Coruña,Albacete,08470,176.555467,84.622547
Wilfredo Peral Blázquez,68,Glorieta de Teófilo Gimenez 79 Apt. 36 ,Vizcaya,Cáceres,44041,37.323897,-81.890854
Merche Tania Torrijos Mendoza,65,Cuesta de Victor Manuel Herrera 35,Guipúzcoa,León,05789,-101.593517,41.271018
Baltasar Alsina,47,Plaza Evelia Santiago 75 Piso 9 ,Álava,Huelva,38717,-36.444802,-63.1400485
Ángela Ponce Amaya,25,Pasaje de Prudencia Español 61 Apt. 99 ,Guadalajara,Vizcaya,03140,107.940171,-4.948278
Nazario Lledó,25,Callejón Manu Carbonell 14 Apt. 29 ,Cuenca,Lleida,40547,110.115033,-4.0476995
Reyes Montenegro Sosa,80,Cañada Gerardo Uría 311,Valladolid,Navarra,45637,-162.147231,21.2001445
Rosario Marin Segovia,30,Plaza Paloma Calleja 11,Tarragona,Las Palmas,32727,-80.172195,-51.418750
Maricruz Chaves Perales,40,Acceso de Macaria Valdés 84 Puerta 4 ,Girona,Lugo,11986,-130.778245,36.6384595
Rufino Celso Barragán Cervantes,48,Pasaje Leoncio Arco 8,Teruel,Ourense,28798,37.066724,-73.452566
Regina del Vallés,25,Acceso Palmira Cadenas 62,Ávila,Málaga,15132,-79.378143,43.6726145
Estrella Arregui Badía,73,Cañada Reyna Osuna 93 Puerta 8 ,Vizcaya,Ávila,43656,62.692772,51.029020
Aroa Vizcaíno Arribas,70,Camino de Dan Vilaplana 505 Apt. 18 ,Huesca,Salamanca,45919,-152.409786,50.6401265
Victorino Gilabert Fiol,58,Cuesta Verónica Barba 26,Albacete,Córdoba,45853,-159.496989,-1.478971
Marcelo Llanos Manrique,55,Glorieta de Maura Pol 699 Piso 4 ,Cantabria,Cáceres,03122,-58.739671,71.5926255
Clarisa Aroca Cornejo,25,Urbanización Abraham Pol 68,Lugo,Asturias,08250,-112.623709,74.5315665
Adán Sureda Pomares,51,Via de Guiomar Alfonso 55,Madrid,Baleares,42427,168.176251,-86.043670
Chema Varela Menendez,36,Rambla de Hector Arias 10,Valladolid,Burgos,14956,116.559473,-29.459291
Itziar Pozuelo Rius,20,Pasadizo Miguela Benítez 55,Ávila,Jaén,15848,-101.693752,-40.2866365
Rosario Belmonte Aguado,27,Plaza Tadeo Ojeda 885,Girona,Toledo,44718,99.639620,68.2280365
Samanta Vallés Marquez,49,Via Cristóbal Benavente 17,Albacete,Alicante,19542,-83.091984,-19.248364
